{
  "type": "FeatureCollection",
  "features": [
    {
      "type": "Feature",
      "geometry": {
        "type": "LineString",
        "coordinates": [
          [
            -84.395988,
            33.771279
          ],
          [
            -84.395991,
            33.77077
          ],
          [
            -84.395978,
            33.770318
          ],
          [
            -84.39599,
            33.769867
          ],
          [
            -84.396023,
            33.769399
          ],
          [
            -84.395999,
            33.768944
          ],
          [
            -84.39599,
            33.76849
          ],
          [
            -84.39597,
            33.768029
          ],
          [
            -84.396013,
            33.767575
          ],
          [
            -84.395997,
            33.767113
          ],
          [
            -84.39603,
            33.766655
          ],
          [
            -84.396026,
            33.766196
          ],
          [
            -84.396047,
            33.765741
          ],
          [
            -84.396033,
            33.765277
          ],
          [
            -84.396039,
            33.764816
          ],
          [
            -84.396008,
            33.764355
          ],
          [
            -84.395986,
            33.763894
          ],
          [
            -84.395237,
            33.762081
          ],
          [
            -84.395687,
            33.762346
          ],
          [
            -84.396229,
            33.763089
          ],
          [
            -84.396271,
            33.763552
          ],
          [
            -84.396257,
            33.764003
          ],
          [
            -84.396287,
            33.764459
          ],
          [
            -84.396267,
            33.764923
          ],
          [
            -84.396217,
            33.765372
          ],
          [
            -84.396208,
            33.765838
          ],
          [
            -84.396233,
            33.766298
          ],
          [
            -84.396182,
            33.766747
          ],
          [
            -84.396215,
            33.7672
          ],
          [
            -84.396211,
            33.767657
          ],
          [
            -84.396244,
            33.768119
          ],
          [
            -84.396208,
            33.768581
          ],
          [
            -84.39624,
            33.76904
          ],
          [
            -84.396226,
            33.7695
          ],
          [
            -84.396227,
            33.769965
          ],
          [
            -84.396251,
            33.771243
          ],
          [
            -84.396259,
            33.77125
          ]
        ]
      },
      "properties": {}
    }
  ]
}