{
"type": "FeatureCollection",
"name": "piedmont_raw",
"crs": { "type": "name", "properties": { "name": "urn:ogc:def:crs:OGC:1.3:CRS84" } },
"features": [
{ "type": "Feature", "properties": { "Date(GMT)": "2025-10-03T13:14:39Z", "Date(Local)": "2025-10-03T09:14:39Z", "Time(sec)": 0.0, "Latitude": 33.81055, "Longitude": -84.37157, "Horizontal Accuracy(m)": 2.0852398751325776, "Altitude(m)": 255.45641541760412, "Vertical Accuracy(m)": 3.0, "Distance(m)": 0.0, "Speed(m/s)": 0.0, "Average Speed(m/s)": 0.0, "Course(deg)": 280.47892708085624, "True Heading(deg)": 320.26171875, "Magnetic Heading(deg)": 325.885009765625, "Heading Accuracy(deg)": 10.0, "Glide Ratio": 0.0013020521586792999, "Heart Rate (bpm)": 0.0 }, "geometry": { "type": "Point", "coordinates": [ -84.37157, 33.81055 ] } },
{ "type": "Feature", "properties": { "Date(GMT)": "2025-10-03T13:14:40Z", "Date(Local)": "2025-10-03T09:14:40Z", "Time(sec)": 0.51211309432983398, "Latitude": 33.81055, "Longitude": -84.37157, "Horizontal Accuracy(m)": 2.1001976452230058, "Altitude(m)": 255.45641541760412, "Vertical Accuracy(m)": 3.0, "Distance(m)": 0.0, "Speed(m/s)": 0.0, "Average Speed(m/s)": 0.0, "Course(deg)": 280.47892708085624, "True Heading(deg)": 18.280342102050781, "Magnetic Heading(deg)": 23.903633117675781, "Heading Accuracy(deg)": 10.0, "Glide Ratio": 0.0013019278917478999, "Heart Rate (bpm)": 0.0 }, "geometry": { "type": "Point", "coordinates": [ -84.37157, 33.81055 ] } },
{ "type": "Feature", "properties": { "Date(GMT)": "2025-10-03T13:15:08Z", "Date(Local)": "2025-10-03T09:15:08Z", "Time(sec)": 28.517873048782349, "Latitude": 33.81057, "Longitude": -84.37144, "Horizontal Accuracy(m)": 2.0606048565570769, "Altitude(m)": 255.26268028561023, "Vertical Accuracy(m)": 3.0, "Distance(m)": 12.306674475043391, "Speed(m/s)": 0.76431372455301638, "Average Speed(m/s)": 0.9411648881458694, "Course(deg)": 280.47900786287755, "True Heading(deg)": 353.39083862304688, "Magnetic Heading(deg)": 359.01412963867188, "Heading Accuracy(deg)": 10.0, "Glide Ratio": 52.108027765615638, "Heart Rate (bpm)": 0.0 }, "geometry": { "type": "Point", "coordinates": [ -84.37144, 33.81057 ] } },
{ "type": "Feature", "properties": { "Date(GMT)": "2025-10-03T13:15:11Z", "Date(Local)": "2025-10-03T09:15:11Z", "Time(sec)": 31.520013093948364, "Latitude": 33.81058, "Longitude": -84.37132, "Horizontal Accuracy(m)": 2.051961089165228, "Altitude(m)": 255.23377576377243, "Vertical Accuracy(m)": 3.0, "Distance(m)": 23.71003544798679, "Speed(m/s)": 0.76257844105067607, "Average Speed(m/s)": 0.9411648881458694, "Course(deg)": 280.4790817149551, "True Heading(deg)": 354.59002685546875, "Magnetic Heading(deg)": 0.21332471072673789, "Heading Accuracy(deg)": 10.0, "Glide Ratio": -149.55260165600961, "Heart Rate (bpm)": 0.0 }, "geometry": { "type": "Point", "coordinates": [ -84.37132, 33.81058 ] } },
{ "type": "Feature", "properties": { "Date(GMT)": "2025-10-03T13:15:14Z", "Date(Local)": "2025-10-03T09:15:14Z", "Time(sec)": 34.51096498966217, "Latitude": 33.81058, "Longitude": -84.37119, "Horizontal Accuracy(m)": 2.0445501387222245, "Altitude(m)": 255.29515056218952, "Vertical Accuracy(m)": 3.0, "Distance(m)": 35.321736847200924, "Speed(m/s)": 0.80150982100031998, "Average Speed(m/s)": 2.2571764959737157, "Course(deg)": 280.47915621730328, "True Heading(deg)": 350.836181640625, "Magnetic Heading(deg)": 356.45947265625, "Heading Accuracy(deg)": 10.0, "Glide Ratio": -61.63004085501148, "Heart Rate (bpm)": 0.0 }, "geometry": { "type": "Point", "coordinates": [ -84.37119, 33.81058 ] } },
{ "type": "Feature", "properties": { "Date(GMT)": "2025-10-03T13:15:17Z", "Date(Local)": "2025-10-03T09:15:17Z", "Time(sec)": 37.510365009307861, "Latitude": 33.8106, "Longitude": -84.37106, "Horizontal Accuracy(m)": 2.038196175129031, "Altitude(m)": 254.99255003780129, "Vertical Accuracy(m)": 3.0, "Distance(m)": 47.343639041114123, "Speed(m/s)": 0.76129826779388388, "Average Speed(m/s)": 1.9141144325468973, "Course(deg)": 280.4792343714762, "True Heading(deg)": 349.671875, "Magnetic Heading(deg)": 355.295166015625, "Heading Accuracy(deg)": 10.0, "Glide Ratio": -48.635223656523031, "Heart Rate (bpm)": 0.0 }, "geometry": { "type": "Point", "coordinates": [ -84.37106, 33.8106 ] } },
{ "type": "Feature", "properties": { "Date(GMT)": "2025-10-03T13:15:20Z", "Date(Local)": "2025-10-03T09:15:20Z", "Time(sec)": 40.510156989097602, "Latitude": 33.8106, "Longitude": -84.37093, "Horizontal Accuracy(m)": 2.0327484461010266, "Altitude(m)": 254.69638364762068, "Vertical Accuracy(m)": 3.0, "Distance(m)": 59.541706861511543, "Speed(m/s)": 0.96380140931418645, "Average Speed(m/s)": 1.9141144325468973, "Course(deg)": 280.47931295999763, "True Heading(deg)": 349.5377197265625, "Magnetic Heading(deg)": 355.1610107421875, "Heading Accuracy(deg)": 10.0, "Glide Ratio": -49.143129654327495, "Heart Rate (bpm)": 0.0 }, "geometry": { "type": "Point", "coordinates": [ -84.37093, 33.8106 ] } },
{ "type": "Feature", "properties": { "Date(GMT)": "2025-10-03T13:15:23Z", "Date(Local)": "2025-10-03T09:15:23Z", "Time(sec)": 43.513068079948425, "Latitude": 33.81061, "Longitude": -84.3708, "Horizontal Accuracy(m)": 2.0332958907744945, "Altitude(m)": 254.60803023632616, "Vertical Accuracy(m)": 3.0, "Distance(m)": 71.469315725475198, "Speed(m/s)": 0.77717698972478666, "Average Speed(m/s)": 2.4538631625617788, "Course(deg)": 280.47938970010921, "True Heading(deg)": 355.65081787109369, "Magnetic Heading(deg)": 1.2740931510925293, "Heading Accuracy(deg)": 10.0, "Glide Ratio": -71.702717606928786, "Heart Rate (bpm)": 0.0 }, "geometry": { "type": "Point", "coordinates": [ -84.3708, 33.81061 ] } },
{ "type": "Feature", "properties": { "Date(GMT)": "2025-10-03T13:15:26Z", "Date(Local)": "2025-10-03T09:15:26Z", "Time(sec)": 46.51472008228302, "Latitude": 33.81061, "Longitude": -84.37067, "Horizontal Accuracy(m)": 2.0285470644282797, "Altitude(m)": 254.95695886015889, "Vertical Accuracy(m)": 3.0, "Distance(m)": 83.521034644441244, "Speed(m/s)": 0.7411139662685432, "Average Speed(m/s)": 2.4538631625617788, "Course(deg)": 280.47946635790441, "True Heading(deg)": 351.30804443359369, "Magnetic Heading(deg)": 356.93133544921875, "Heading Accuracy(deg)": 10.0, "Glide Ratio": -84.425693754914548, "Heart Rate (bpm)": 0.0 }, "geometry": { "type": "Point", "coordinates": [ -84.37067, 33.81061 ] } },
{ "type": "Feature", "properties": { "Date(GMT)": "2025-10-03T13:15:29Z", "Date(Local)": "2025-10-03T09:15:29Z", "Time(sec)": 49.517010092735291, "Latitude": 33.8106, "Longitude": -84.37056, "Horizontal Accuracy(m)": 2.0244755392156284, "Altitude(m)": 255.18777474015951, "Vertical Accuracy(m)": 3.0, "Distance(m)": 93.798999866765982, "Speed(m/s)": 0.61018375812546755, "Average Speed(m/s)": 2.4097276368168337, "Course(deg)": 280.47953056946983, "True Heading(deg)": 2.737861156463623, "Magnetic Heading(deg)": 8.3611516952514648, "Heading Accuracy(deg)": 10.0, "Glide Ratio": -138.08050983346075, "Heart Rate (bpm)": 0.0 }, "geometry": { "type": "Point", "coordinates": [ -84.37056, 33.8106 ] } },
{ "type": "Feature", "properties": { "Date(GMT)": "2025-10-03T13:15:33Z", "Date(Local)": "2025-10-03T09:15:33Z", "Time(sec)": 53.520007014274597, "Latitude": 33.8106, "Longitude": -84.37043, "Horizontal Accuracy(m)": 2.0199354796230726, "Altitude(m)": 254.7544509107247, "Vertical Accuracy(m)": 3.0, "Distance(m)": 105.81302177548186, "Speed(m/s)": 0.74916506017357731, "Average Speed(m/s)": 1.8061954619802567, "Course(deg)": 280.47960562854462, "True Heading(deg)": 352.10345458984369, "Magnetic Heading(deg)": 357.72674560546875, "Heading Accuracy(deg)": 10.0, "Glide Ratio": 402.38784415886079, "Heart Rate (bpm)": 0.0 }, "geometry": { "type": "Point", "coordinates": [ -84.37043, 33.8106 ] } },
{ "type": "Feature", "properties": { "Date(GMT)": "2025-10-03T13:15:36Z", "Date(Local)": "2025-10-03T09:15:36Z", "Time(sec)": 56.509716033935547, "Latitude": 33.8106, "Longitude": -84.37032, "Horizontal Accuracy(m)": 2.0170921814492644, "Altitude(m)": 255.32086656056345, "Vertical Accuracy(m)": 3.0, "Distance(m)": 115.97050445182509, "Speed(m/s)": 0.58736286449773922, "Average Speed(m/s)": 1.8061954619802567, "Course(deg)": 280.4796707708137, "True Heading(deg)": 302.70648193359369, "Magnetic Heading(deg)": 308.32977294921875, "Heading Accuracy(deg)": 10.0, "Glide Ratio": -5383.9422532501712, "Heart Rate (bpm)": 0.0 }, "geometry": { "type": "Point", "coordinates": [ -84.37032, 33.8106 ] } },
{ "type": "Feature", "properties": { "Date(GMT)": "2025-10-03T13:15:40Z", "Date(Local)": "2025-10-03T09:15:40Z", "Time(sec)": 60.510182023048401, "Latitude": 33.81066, "Longitude": -84.37022, "Horizontal Accuracy(m)": 2.0139216876369832, "Altitude(m)": 255.48045633547008, "Vertical Accuracy(m)": 3.0, "Distance(m)": 127.61766921518928, "Speed(m/s)": 0.33449158249185951, "Average Speed(m/s)": 2.0348832876719798, "Course(deg)": 280.47974377103168, "True Heading(deg)": 337.85751342773438, "Magnetic Heading(deg)": 343.48080444335938, "Heading Accuracy(deg)": 10.0, "Glide Ratio": 53.657551367950127, "Heart Rate (bpm)": 0.0 }, "geometry": { "type": "Point", "coordinates": [ -84.37022, 33.81066 ] } },
{ "type": "Feature", "properties": { "Date(GMT)": "2025-10-03T13:15:45Z", "Date(Local)": "2025-10-03T09:15:45Z", "Time(sec)": 64.511626005172729, "Latitude": 33.8107, "Longitude": -84.3701, "Horizontal Accuracy(m)": 2.0113393004712976, "Altitude(m)": 256.0125224199146, "Vertical Accuracy(m)": 3.0, "Distance(m)": 139.84223786376222, "Speed(m/s)": 0.81300128336951882, "Average Speed(m/s)": 1.632686517805398, "Course(deg)": 280.47982440211376, "True Heading(deg)": 333.23214721679688, "Magnetic Heading(deg)": 338.85543823242188, "Heading Accuracy(deg)": 10.0, "Glide Ratio": 54.45461403669492, "Heart Rate (bpm)": 0.0 }, "geometry": { "type": "Point", "coordinates": [ -84.3701, 33.8107 ] } },
{ "type": "Feature", "properties": { "Date(GMT)": "2025-10-03T13:15:48Z", "Date(Local)": "2025-10-03T09:15:48Z", "Time(sec)": 67.513655066490173, "Latitude": 33.81074, "Longitude": -84.36998, "Horizontal Accuracy(m)": 2.0097220363385104, "Altitude(m)": 257.00283492170274, "Vertical Accuracy(m)": 3.0, "Distance(m)": 151.65508989032, "Speed(m/s)": 3.2826000280556018, "Average Speed(m/s)": 1.5942131500080965, "Course(deg)": 53.845127605889012, "True Heading(deg)": 336.4683837890625, "Magnetic Heading(deg)": 342.0916748046875, "Heading Accuracy(deg)": 10.0, "Glide Ratio": 29.429239113235202, "Heart Rate (bpm)": 0.0 }, "geometry": { "type": "Point", "coordinates": [ -84.36998, 33.81074 ] } },
{ "type": "Feature", "properties": { "Date(GMT)": "2025-10-03T13:15:51Z", "Date(Local)": "2025-10-03T09:15:51Z", "Time(sec)": 70.515879034996033, "Latitude": 33.81076, "Longitude": -84.36984, "Horizontal Accuracy(m)": 2.0083354362416936, "Altitude(m)": 257.72737957257777, "Vertical Accuracy(m)": 3.0, "Distance(m)": 164.6701608074867, "Speed(m/s)": 3.9688292853717977, "Average Speed(m/s)": 1.5942131500080965, "Course(deg)": 75.830723604319971, "True Heading(deg)": 343.06277465820312, "Magnetic Heading(deg)": 348.68606567382812, "Heading Accuracy(deg)": 10.0, "Glide Ratio": 20.290843077220281, "Heart Rate (bpm)": 0.0 }, "geometry": { "type": "Point", "coordinates": [ -84.36984, 33.81076 ] } },
{ "type": "Feature", "properties": { "Date(GMT)": "2025-10-03T13:15:54Z", "Date(Local)": "2025-10-03T09:15:54Z", "Time(sec)": 73.518298983573914, "Latitude": 33.81079, "Longitude": -84.36972, "Horizontal Accuracy(m)": 2.0071465901459047, "Altitude(m)": 258.19402402546257, "Vertical Accuracy(m)": 3.0, "Distance(m)": 176.69026325634539, "Speed(m/s)": 4.0019911394015368, "Average Speed(m/s)": 4.0374780702739645, "Course(deg)": 72.756314898964106, "True Heading(deg)": 338.22991943359369, "Magnetic Heading(deg)": 343.85321044921875, "Heading Accuracy(deg)": 10.0, "Glide Ratio": 20.275055620581973, "Heart Rate (bpm)": 0.0 }, "geometry": { "type": "Point", "coordinates": [ -84.36972, 33.81079 ] } },
{ "type": "Feature", "properties": { "Date(GMT)": "2025-10-03T13:15:57Z", "Date(Local)": "2025-10-03T09:15:57Z", "Time(sec)": 76.509152054786682, "Latitude": 33.81083, "Longitude": -84.36959, "Horizontal Accuracy(m)": 2.0061273066287555, "Altitude(m)": 259.26036834996194, "Vertical Accuracy(m)": 3.0, "Distance(m)": 188.8737031272592, "Speed(m/s)": 4.0483820935484571, "Average Speed(m/s)": 4.0374780702739645, "Course(deg)": 72.400141599177289, "True Heading(deg)": 337.27139282226562, "Magnetic Heading(deg)": 342.89468383789062, "Heading Accuracy(deg)": 10.0, "Glide Ratio": 20.04793425599533, "Heart Rate (bpm)": 0.0 }, "geometry": { "type": "Point", "coordinates": [ -84.36959, 33.81083 ] } },
{ "type": "Feature", "properties": { "Date(GMT)": "2025-10-03T13:16:00Z", "Date(Local)": "2025-10-03T09:16:00Z", "Time(sec)": 79.509466052055359, "Latitude": 33.81085, "Longitude": -84.36947, "Horizontal Accuracy(m)": 2.0052533953611853, "Altitude(m)": 259.49391282536089, "Vertical Accuracy(m)": 3.0, "Distance(m)": 200.68703301652872, "Speed(m/s)": 3.9616482368046411, "Average Speed(m/s)": 4.0468972838122168, "Course(deg)": 73.026924493199218, "True Heading(deg)": 346.71682739257812, "Magnetic Heading(deg)": 352.34011840820312, "Heading Accuracy(deg)": 10.0, "Glide Ratio": 17.606751106642147, "Heart Rate (bpm)": 0.0 }, "geometry": { "type": "Point", "coordinates": [ -84.36947, 33.81085 ] } },
{ "type": "Feature", "properties": { "Date(GMT)": "2025-10-03T13:16:03Z", "Date(Local)": "2025-10-03T09:16:03Z", "Time(sec)": 82.509350061416626, "Latitude": 33.81086, "Longitude": -84.36934, "Horizontal Accuracy(m)": 2.0045041382450641, "Altitude(m)": 259.91295795608312, "Vertical Accuracy(m)": 3.0, "Distance(m)": 212.48909369545049, "Speed(m/s)": 3.899333763354397, "Average Speed(m/s)": 4.0715583547485164, "Course(deg)": 83.77759373716215, "True Heading(deg)": 345.59005737304688, "Magnetic Heading(deg)": 351.21334838867188, "Heading Accuracy(deg)": 10.0, "Glide Ratio": 22.450170904735018, "Heart Rate (bpm)": 0.0 }, "geometry": { "type": "Point", "coordinates": [ -84.36934, 33.81086 ] } },
{ "type": "Feature", "properties": { "Date(GMT)": "2025-10-03T13:16:05Z", "Date(Local)": "2025-10-03T09:16:05Z", "Time(sec)": 85.510519981384277, "Latitude": 33.81088, "Longitude": -84.36921, "Horizontal Accuracy(m)": 2.003861736734228, "Altitude(m)": 260.63799753319472, "Vertical Accuracy(m)": 3.0, "Distance(m)": 224.437867310277, "Speed(m/s)": 4.0232497839258201, "Average Speed(m/s)": 4.0715583547485164, "Course(deg)": 83.894375281667038, "True Heading(deg)": 357.86428833007812, "Magnetic Heading(deg)": 3.487567663192749, "Heading Accuracy(deg)": 10.0, "Glide Ratio": 21.613133771245536, "Heart Rate (bpm)": 0.0 }, "geometry": { "type": "Point", "coordinates": [ -84.36921, 33.81088 ] } },
{ "type": "Feature", "properties": { "Date(GMT)": "2025-10-03T13:16:08Z", "Date(Local)": "2025-10-03T09:16:08Z", "Time(sec)": 88.512773990631104, "Latitude": 33.81088, "Longitude": -84.36908, "Horizontal Accuracy(m)": 2.0033109598829908, "Altitude(m)": 261.40975425578654, "Vertical Accuracy(m)": 3.0, "Distance(m)": 236.3749200642136, "Speed(m/s)": 3.7644883790716741, "Average Speed(m/s)": 4.0457553866473104, "Course(deg)": 90.167786320889377, "True Heading(deg)": 3.3341755867004395, "Magnetic Heading(deg)": 8.9574661254882812, "Heading Accuracy(deg)": 10.0, "Glide Ratio": 20.225912971964878, "Heart Rate (bpm)": 0.0 }, "geometry": { "type": "Point", "coordinates": [ -84.36908, 33.81088 ] } },
{ "type": "Feature", "properties": { "Date(GMT)": "2025-10-03T13:16:11Z", "Date(Local)": "2025-10-03T09:16:11Z", "Time(sec)": 91.514993071556077, "Latitude": 33.81087, "Longitude": -84.36895, "Horizontal Accuracy(m)": 2.0028387354435835, "Altitude(m)": 262.06997012160718, "Vertical Accuracy(m)": 3.0, "Distance(m)": 248.93675432714093, "Speed(m/s)": 4.1188963863898138, "Average Speed(m/s)": 4.0457553866473104, "Course(deg)": 93.156841386108056, "True Heading(deg)": 0.17693233489990229, "Magnetic Heading(deg)": 5.8002228736877441, "Heading Accuracy(deg)": 10.0, "Glide Ratio": 18.712691382828758, "Heart Rate (bpm)": 0.0 }, "geometry": { "type": "Point", "coordinates": [ -84.36895, 33.81087 ] } },
{ "type": "Feature", "properties": { "Date(GMT)": "2025-10-03T13:16:14Z", "Date(Local)": "2025-10-03T09:16:14Z", "Time(sec)": 94.517238020896926, "Latitude": 33.81085, "Longitude": -84.36882, "Horizontal Accuracy(m)": 2.0024338639447192, "Altitude(m)": 262.81887562666088, "Vertical Accuracy(m)": 3.0, "Distance(m)": 260.76294937531338, "Speed(m/s)": 4.0149796067003631, "Average Speed(m/s)": 4.1263495346081234, "Course(deg)": 97.983910798312365, "True Heading(deg)": 12.799636840820312, "Magnetic Heading(deg)": 18.422927856445312, "Heading Accuracy(deg)": 10.0, "Glide Ratio": 19.09532518996771, "Heart Rate (bpm)": 0.0 }, "geometry": { "type": "Point", "coordinates": [ -84.36882, 33.81085 ] } },
{ "type": "Feature", "properties": { "Date(GMT)": "2025-10-03T13:16:17Z", "Date(Local)": "2025-10-03T09:16:17Z", "Time(sec)": 97.508841037750244, "Latitude": 33.81084, "Longitude": -84.36869, "Horizontal Accuracy(m)": 2.0020867436447212, "Altitude(m)": 264.0024701198563, "Vertical Accuracy(m)": 3.0, "Distance(m)": 272.78926045927977, "Speed(m/s)": 4.3536276567597501, "Average Speed(m/s)": 4.0842826532445367, "Course(deg)": 100.4358269440808, "True Heading(deg)": 10.260238647460938, "Magnetic Heading(deg)": 15.883529663085938, "Heading Accuracy(deg)": 10.0, "Glide Ratio": 17.173992907302409, "Heart Rate (bpm)": 0.0 }, "geometry": { "type": "Point", "coordinates": [ -84.36869, 33.81084 ] } },
{ "type": "Feature", "properties": { "Date(GMT)": "2025-10-03T13:16:20Z", "Date(Local)": "2025-10-03T09:16:20Z", "Time(sec)": 100.50804305076601, "Latitude": 33.8108, "Longitude": -84.36858, "Horizontal Accuracy(m)": 2.0017891269742618, "Altitude(m)": 264.95527826156467, "Vertical Accuracy(m)": 3.0, "Distance(m)": 284.53242996378373, "Speed(m/s)": 4.0044204887800472, "Average Speed(m/s)": 4.0842826532445367, "Course(deg)": 113.49343032489423, "True Heading(deg)": 34.001678466796875, "Magnetic Heading(deg)": 39.624969482421882, "Heading Accuracy(deg)": 10.0, "Glide Ratio": 14.507908694235262, "Heart Rate (bpm)": 0.0 }, "geometry": { "type": "Point", "coordinates": [ -84.36858, 33.8108 ] } },
{ "type": "Feature", "properties": { "Date(GMT)": "2025-10-03T13:16:26Z", "Date(Local)": "2025-10-03T09:16:26Z", "Time(sec)": 106.50853705406188, "Latitude": 33.81073, "Longitude": -84.36849, "Horizontal Accuracy(m)": 2.0111418688510807, "Altitude(m)": 265.67482106201351, "Vertical Accuracy(m)": 3.0, "Distance(m)": 295.35812051690118, "Speed(m/s)": 0.72312960033695917, "Average Speed(m/s)": 3.8813838257051909, "Course(deg)": 127.00331426031887, "True Heading(deg)": 35.102367401123047, "Magnetic Heading(deg)": 40.725658416748047, "Heading Accuracy(deg)": 10.0, "Glide Ratio": 11.132036037693096, "Heart Rate (bpm)": 0.0 }, "geometry": { "type": "Point", "coordinates": [ -84.36849, 33.81073 ] } },
{ "type": "Feature", "properties": { "Date(GMT)": "2025-10-03T13:16:30Z", "Date(Local)": "2025-10-03T09:16:30Z", "Time(sec)": 110.51254308223724, "Latitude": 33.81064, "Longitude": -84.36839, "Horizontal Accuracy(m)": 2.0090751394481159, "Altitude(m)": 266.2052787579596, "Vertical Accuracy(m)": 3.0, "Distance(m)": 309.07211209394649, "Speed(m/s)": 4.1740595568065562, "Average Speed(m/s)": 1.1266506254179738, "Course(deg)": 138.90828144617387, "True Heading(deg)": 39.423858642578125, "Magnetic Heading(deg)": 45.047149658203125, "Heading Accuracy(deg)": 10.0, "Glide Ratio": 13.815047340862613, "Heart Rate (bpm)": 0.0 }, "geometry": { "type": "Point", "coordinates": [ -84.36839, 33.81064 ] } },
{ "type": "Feature", "properties": { "Date(GMT)": "2025-10-03T13:16:33Z", "Date(Local)": "2025-10-03T09:16:33Z", "Time(sec)": 113.51484107971191, "Latitude": 33.81055, "Longitude": -84.3683, "Horizontal Accuracy(m)": 2.0077807985892164, "Altitude(m)": 266.42785830050707, "Vertical Accuracy(m)": 3.0, "Distance(m)": 321.71853052342743, "Speed(m/s)": 4.3348964656578781, "Average Speed(m/s)": 4.0389773063071912, "Course(deg)": 139.50070105753869, "True Heading(deg)": 42.097919464111328, "Magnetic Heading(deg)": 47.721210479736328, "Heading Accuracy(deg)": 10.0, "Glide Ratio": 16.20947761615847, "Heart Rate (bpm)": 0.0 }, "geometry": { "type": "Point", "coordinates": [ -84.3683, 33.81055 ] } },
{ "type": "Feature", "properties": { "Date(GMT)": "2025-10-03T13:16:36Z", "Date(Local)": "2025-10-03T09:16:36Z", "Time(sec)": 116.51708698272704, "Latitude": 33.81046, "Longitude": -84.3682, "Horizontal Accuracy(m)": 2.0066710633608067, "Altitude(m)": 266.28720942605287, "Vertical Accuracy(m)": 3.0, "Distance(m)": 335.40121688949915, "Speed(m/s)": 4.480894079217542, "Average Speed(m/s)": 4.0389773063071912, "Course(deg)": 138.3697816681161, "True Heading(deg)": 40.003761291503913, "Magnetic Heading(deg)": 45.627052307128906, "Heading Accuracy(deg)": 10.0, "Glide Ratio": 27.158254187503719, "Heart Rate (bpm)": 0.0 }, "geometry": { "type": "Point", "coordinates": [ -84.3682, 33.81046 ] } },
{ "type": "Feature", "properties": { "Date(GMT)": "2025-10-03T13:16:39Z", "Date(Local)": "2025-10-03T09:16:39Z", "Time(sec)": 119.50791299343108, "Latitude": 33.81037, "Longitude": -84.3681, "Horizontal Accuracy(m)": 2.0057196030797417, "Altitude(m)": 266.67598185315728, "Vertical Accuracy(m)": 3.0, "Distance(m)": 349.13857379143292, "Speed(m/s)": 4.3066537740094653, "Average Speed(m/s)": 4.5190472523596252, "Course(deg)": 138.68483096156046, "True Heading(deg)": 48.53277587890625, "Magnetic Heading(deg)": 54.15606689453125, "Heading Accuracy(deg)": 10.0, "Glide Ratio": 57.65047813156653, "Heart Rate (bpm)": 0.0 }, "geometry": { "type": "Point", "coordinates": [ -84.3681, 33.81037 ] } },
{ "type": "Feature", "properties": { "Date(GMT)": "2025-10-03T13:16:42Z", "Date(Local)": "2025-10-03T09:16:42Z", "Time(sec)": 122.50800800323486, "Latitude": 33.81028, "Longitude": -84.36801, "Horizontal Accuracy(m)": 2.0049038459318478, "Altitude(m)": 266.33097181096679, "Vertical Accuracy(m)": 3.0, "Distance(m)": 362.55911859539202, "Speed(m/s)": 4.4918649985630728, "Average Speed(m/s)": 4.3262030251356682, "Course(deg)": 136.69284594566932, "True Heading(deg)": 48.089656829833984, "Magnetic Heading(deg)": 53.712947845458977, "Heading Accuracy(deg)": 10.0, "Glide Ratio": 82.189497662489131, "Heart Rate (bpm)": 0.0 }, "geometry": { "type": "Point", "coordinates": [ -84.36801, 33.81028 ] } },
{ "type": "Feature", "properties": { "Date(GMT)": "2025-10-03T13:16:45Z", "Date(Local)": "2025-10-03T09:16:45Z", "Time(sec)": 125.5073220729828, "Latitude": 33.81018, "Longitude": -84.36792, "Horizontal Accuracy(m)": 2.0042044348237207, "Altitude(m)": 266.36207180656493, "Vertical Accuracy(m)": 3.0, "Distance(m)": 376.14708359919462, "Speed(m/s)": 4.5295380559100273, "Average Speed(m/s)": 4.3262030251356682, "Course(deg)": 143.71067058275369, "True Heading(deg)": 50.680545806884766, "Magnetic Heading(deg)": 56.303836822509766, "Heading Accuracy(deg)": 10.0, "Glide Ratio": 128.04231975154337, "Heart Rate (bpm)": 0.0 }, "geometry": { "type": "Point", "coordinates": [ -84.36792, 33.81018 ] } },
{ "type": "Feature", "properties": { "Date(GMT)": "2025-10-03T13:16:48Z", "Date(Local)": "2025-10-03T09:16:48Z", "Time(sec)": 128.50949001312256, "Latitude": 33.81008, "Longitude": -84.36783, "Horizontal Accuracy(m)": 2.0036047779284818, "Altitude(m)": 266.67675874289125, "Vertical Accuracy(m)": 3.0, "Distance(m)": 390.07991123766578, "Speed(m/s)": 4.7119316866546157, "Average Speed(m/s)": 4.5900657834870247, "Course(deg)": 144.23216654575839, "True Heading(deg)": 44.837944030761719, "Magnetic Heading(deg)": 50.461235046386719, "Heading Accuracy(deg)": 10.0, "Glide Ratio": 6580.5610068913438, "Heart Rate (bpm)": 0.0 }, "geometry": { "type": "Point", "coordinates": [ -84.36783, 33.81008 ] } },
{ "type": "Feature", "properties": { "Date(GMT)": "2025-10-03T13:16:51Z", "Date(Local)": "2025-10-03T09:16:51Z", "Time(sec)": 131.51174700260162, "Latitude": 33.80998, "Longitude": -84.36775, "Horizontal Accuracy(m)": 2.00309064786516, "Altitude(m)": 267.24296739604324, "Vertical Accuracy(m)": 3.0, "Distance(m)": 403.22141956589536, "Speed(m/s)": 4.448068845137068, "Average Speed(m/s)": 4.4985891959849837, "Course(deg)": 144.92185957390117, "True Heading(deg)": 61.588874816894531, "Magnetic Heading(deg)": 67.212165832519531, "Heading Accuracy(deg)": 10.0, "Glide Ratio": 128.48534296176351, "Heart Rate (bpm)": 0.0 }, "geometry": { "type": "Point", "coordinates": [ -84.36775, 33.80998 ] } },
{ "type": "Feature", "properties": { "Date(GMT)": "2025-10-03T13:16:54Z", "Date(Local)": "2025-10-03T09:16:54Z", "Time(sec)": 134.51420104503632, "Latitude": 33.80988, "Longitude": -84.36769, "Horizontal Accuracy(m)": 2.0026498445149881, "Altitude(m)": 267.7478826539591, "Vertical Accuracy(m)": 3.0, "Distance(m)": 415.96245373402581, "Speed(m/s)": 4.1188866228428855, "Average Speed(m/s)": 4.3089289436256095, "Course(deg)": 149.86729204401522, "True Heading(deg)": 62.149642944335938, "Magnetic Heading(deg)": 67.772933959960938, "Heading Accuracy(deg)": 10.0, "Glide Ratio": 65.620927232970203, "Heart Rate (bpm)": 0.0 }, "geometry": { "type": "Point", "coordinates": [ -84.36769, 33.80988 ] } },
{ "type": "Feature", "properties": { "Date(GMT)": "2025-10-03T13:16:57Z", "Date(Local)": "2025-10-03T09:16:57Z", "Time(sec)": 137.5161190032959, "Latitude": 33.80979, "Longitude": -84.36763, "Horizontal Accuracy(m)": 2.0023914907725797, "Altitude(m)": 268.34521198645234, "Vertical Accuracy(m)": 3.0, "Distance(m)": 427.58639861044367, "Speed(m/s)": 3.5617493683078512, "Average Speed(m/s)": 4.1313624431124714, "Course(deg)": 153.61786101314075, "True Heading(deg)": 48.695430755615234, "Magnetic Heading(deg)": 54.318721771240241, "Heading Accuracy(deg)": 10.0, "Glide Ratio": 50.23047524298677, "Heart Rate (bpm)": 0.0 }, "geometry": { "type": "Point", "coordinates": [ -84.36763, 33.80979 ] } },
{ "type": "Feature", "properties": { "Date(GMT)": "2025-10-03T13:16:59Z", "Date(Local)": "2025-10-03T09:16:59Z", "Time(sec)": 139.50744605064392, "Latitude": 33.8097, "Longitude": -84.36758, "Horizontal Accuracy(m)": 2.0014662555261391, "Altitude(m)": 268.21257376484573, "Vertical Accuracy(m)": 3.0, "Distance(m)": 437.77917695419649, "Speed(m/s)": 4.5357212439907943, "Average Speed(m/s)": 4.1313624431124714, "Course(deg)": 148.20582836173915, "True Heading(deg)": 52.095127105712891, "Magnetic Heading(deg)": 57.718418121337891, "Heading Accuracy(deg)": 10.0, "Glide Ratio": 39.166558660651518, "Heart Rate (bpm)": 0.0 }, "geometry": { "type": "Point", "coordinates": [ -84.36758, 33.8097 ] } },
{ "type": "Feature", "properties": { "Date(GMT)": "2025-10-03T13:17:02Z", "Date(Local)": "2025-10-03T09:17:02Z", "Time(sec)": 142.50735104084015, "Latitude": 33.80961, "Longitude": -84.3675, "Horizontal Accuracy(m)": 2.0009164113962754, "Altitude(m)": 268.48767543677241, "Vertical Accuracy(m)": 3.0, "Distance(m)": 450.46442299776152, "Speed(m/s)": 4.352227566664479, "Average Speed(m/s)": 4.376705647470196, "Course(deg)": 145.35827688409083, "True Heading(deg)": 43.398826599121087, "Magnetic Heading(deg)": 49.022117614746094, "Heading Accuracy(deg)": 10.0, "Glide Ratio": 32.437719690944967, "Heart Rate (bpm)": 0.0 }, "geometry": { "type": "Point", "coordinates": [ -84.3675, 33.80961 ] } },
{ "type": "Feature", "properties": { "Date(GMT)": "2025-10-03T13:17:05Z", "Date(Local)": "2025-10-03T09:17:05Z", "Time(sec)": 145.50812709331512, "Latitude": 33.80952, "Longitude": -84.36741, "Horizontal Accuracy(m)": 2.0006664859962551, "Altitude(m)": 268.61293249391019, "Vertical Accuracy(m)": 3.0, "Distance(m)": 464.0066152337061, "Speed(m/s)": 4.4343424390727302, "Average Speed(m/s)": 4.376705647470196, "Course(deg)": 143.73655061814992, "True Heading(deg)": 51.709091186523438, "Magnetic Heading(deg)": 57.332382202148438, "Heading Accuracy(deg)": 10.0, "Glide Ratio": 34.982222294040419, "Heart Rate (bpm)": 0.0 }, "geometry": { "type": "Point", "coordinates": [ -84.36741, 33.80952 ] } },
{ "type": "Feature", "properties": { "Date(GMT)": "2025-10-03T13:17:08Z", "Date(Local)": "2025-10-03T09:17:08Z", "Time(sec)": 148.5111790895462, "Latitude": 33.80943, "Longitude": -84.36732, "Horizontal Accuracy(m)": 2.0005236700666158, "Altitude(m)": 269.08439027052373, "Vertical Accuracy(m)": 3.0, "Distance(m)": 477.10396868106255, "Speed(m/s)": 4.3119013198100644, "Average Speed(m/s)": 4.5075513169972137, "Course(deg)": 142.89986897950905, "True Heading(deg)": 51.709091186523438, "Magnetic Heading(deg)": 57.332382202148438, "Heading Accuracy(deg)": 10.0, "Glide Ratio": 46.516505435130249, "Heart Rate (bpm)": 0.0 }, "geometry": { "type": "Point", "coordinates": [ -84.36732, 33.80943 ] } },
{ "type": "Feature", "properties": { "Date(GMT)": "2025-10-03T13:17:11Z", "Date(Local)": "2025-10-03T09:17:11Z", "Time(sec)": 151.50859498977661, "Latitude": 33.80935, "Longitude": -84.36722, "Horizontal Accuracy(m)": 2.0046910513951253, "Altitude(m)": 269.38798289839178, "Vertical Accuracy(m)": 3.0, "Distance(m)": 489.48506294537731, "Speed(m/s)": 4.3084021709713713, "Average Speed(m/s)": 4.2756382382752829, "Course(deg)": 136.83279236692533, "True Heading(deg)": 51.709091186523438, "Magnetic Heading(deg)": 57.332382202148438, "Heading Accuracy(deg)": 10.0, "Glide Ratio": 46.14070947457332, "Heart Rate (bpm)": 0.0 }, "geometry": { "type": "Point", "coordinates": [ -84.36722, 33.80935 ] } },
{ "type": "Feature", "properties": { "Date(GMT)": "2025-10-03T13:17:14Z", "Date(Local)": "2025-10-03T09:17:14Z", "Time(sec)": 154.51086509227753, "Latitude": 33.80926, "Longitude": -84.36714, "Horizontal Accuracy(m)": 2.0385932042399468, "Altitude(m)": 269.79661516286433, "Vertical Accuracy(m)": 3.0, "Distance(m)": 502.00508025941213, "Speed(m/s)": 4.3802662998895974, "Average Speed(m/s)": 4.1938730076213959, "Course(deg)": 145.86371187365731, "True Heading(deg)": 51.709091186523438, "Magnetic Heading(deg)": 57.332382202148438, "Heading Accuracy(deg)": 10.0, "Glide Ratio": 47.240038962528224, "Heart Rate (bpm)": 0.0 }, "geometry": { "type": "Point", "coordinates": [ -84.36714, 33.80926 ] } },
{ "type": "Feature", "properties": { "Date(GMT)": "2025-10-03T13:17:16Z", "Date(Local)": "2025-10-03T09:17:16Z", "Time(sec)": 156.50644099712372, "Latitude": 33.80918, "Longitude": -84.36708, "Horizontal Accuracy(m)": 2.0348303596461674, "Altitude(m)": 269.91716672852635, "Vertical Accuracy(m)": 3.0, "Distance(m)": 512.44075430899898, "Speed(m/s)": 4.4765576867824111, "Average Speed(m/s)": 4.1938730076213959, "Course(deg)": 144.83784068168109, "True Heading(deg)": 51.709091186523438, "Magnetic Heading(deg)": 57.332382202148438, "Heading Accuracy(deg)": 10.0, "Glide Ratio": 41.590594321693587, "Heart Rate (bpm)": 0.0 }, "geometry": { "type": "Point", "coordinates": [ -84.36708, 33.80918 ] } },
{ "type": "Feature", "properties": { "Date(GMT)": "2025-10-03T13:17:19Z", "Date(Local)": "2025-10-03T09:17:19Z", "Time(sec)": 159.50978398323059, "Latitude": 33.80909, "Longitude": -84.36699, "Horizontal Accuracy(m)": 2.0298626757565752, "Altitude(m)": 270.54026327561587, "Vertical Accuracy(m)": 3.0, "Distance(m)": 525.54121513191944, "Speed(m/s)": 4.2841718782207705, "Average Speed(m/s)": 4.4814061751180105, "Course(deg)": 142.18847281357793, "True Heading(deg)": 51.709091186523438, "Magnetic Heading(deg)": 57.332382202148438, "Heading Accuracy(deg)": 10.0, "Glide Ratio": 40.849292598493548, "Heart Rate (bpm)": 0.0 }, "geometry": { "type": "Point", "coordinates": [ -84.36699, 33.80909 ] } },
{ "type": "Feature", "properties": { "Date(GMT)": "2025-10-03T13:17:22Z", "Date(Local)": "2025-10-03T09:17:22Z", "Time(sec)": 162.51069307327271, "Latitude": 33.80899, "Longitude": -84.36691, "Horizontal Accuracy(m)": 2.0256035161971404, "Altitude(m)": 270.65769682265818, "Vertical Accuracy(m)": 3.0, "Distance(m)": 538.75194954159883, "Speed(m/s)": 4.3728292127728032, "Average Speed(m/s)": 4.2687440194301267, "Course(deg)": 140.52936360539704, "True Heading(deg)": 51.709091186523438, "Magnetic Heading(deg)": 57.332382202148438, "Heading Accuracy(deg)": 10.0, "Glide Ratio": 36.256925588566929, "Heart Rate (bpm)": 0.0 }, "geometry": { "type": "Point", "coordinates": [ -84.36691, 33.80899 ] } },
{ "type": "Feature", "properties": { "Date(GMT)": "2025-10-03T13:17:25Z", "Date(Local)": "2025-10-03T09:17:25Z", "Time(sec)": 165.50760805606842, "Latitude": 33.80891, "Longitude": -84.36682, "Horizontal Accuracy(m)": 2.0219518257051678, "Altitude(m)": 271.37531680148089, "Vertical Accuracy(m)": 3.0, "Distance(m)": 550.71962943008089, "Speed(m/s)": 4.1949385122221896, "Average Speed(m/s)": 4.2687440194301267, "Course(deg)": 143.15409870417102, "True Heading(deg)": 51.709091186523438, "Magnetic Heading(deg)": 57.332382202148438, "Heading Accuracy(deg)": 10.0, "Glide Ratio": 33.12461401199122, "Heart Rate (bpm)": 0.0 }, "geometry": { "type": "Point", "coordinates": [ -84.36682, 33.80891 ] } },
{ "type": "Feature", "properties": { "Date(GMT)": "2025-10-03T13:17:28Z", "Date(Local)": "2025-10-03T09:17:28Z", "Time(sec)": 168.5076220035553, "Latitude": 33.80882, "Longitude": -84.36674, "Horizontal Accuracy(m)": 2.0188209552928837, "Altitude(m)": 271.92520337738097, "Vertical Accuracy(m)": 3.0, "Distance(m)": 563.44532643530636, "Speed(m/s)": 4.2069365739193429, "Average Speed(m/s)": 4.2183227190616259, "Course(deg)": 145.24267193732695, "True Heading(deg)": 51.709091186523438, "Magnetic Heading(deg)": 57.332382202148438, "Heading Accuracy(deg)": 10.0, "Glide Ratio": 29.492495217092586, "Heart Rate (bpm)": 0.0 }, "geometry": { "type": "Point", "coordinates": [ -84.36674, 33.80882 ] } },
{ "type": "Feature", "properties": { "Date(GMT)": "2025-10-03T13:17:31Z", "Date(Local)": "2025-10-03T09:17:31Z", "Time(sec)": 171.50756800174713, "Latitude": 33.80872, "Longitude": -84.36667, "Horizontal Accuracy(m)": 2.0161366302624519, "Altitude(m)": 272.53767466731369, "Vertical Accuracy(m)": 3.0, "Distance(m)": 576.18604551939291, "Speed(m/s)": 4.2521775319347501, "Average Speed(m/s)": 4.2183227190616259, "Course(deg)": 143.98740776989951, "True Heading(deg)": 51.709091186523438, "Magnetic Heading(deg)": 57.332382202148438, "Heading Accuracy(deg)": 10.0, "Glide Ratio": 27.374308587111472, "Heart Rate (bpm)": 0.0 }, "geometry": { "type": "Point", "coordinates": [ -84.36667, 33.80872 ] } },
{ "type": "Feature", "properties": { "Date(GMT)": "2025-10-03T13:17:34Z", "Date(Local)": "2025-10-03T09:17:34Z", "Time(sec)": 174.5102950334549, "Latitude": 33.80864, "Longitude": -84.36657, "Horizontal Accuracy(m)": 2.0138351564055297, "Altitude(m)": 272.88850741554052, "Vertical Accuracy(m)": 3.0, "Distance(m)": 588.67522595866728, "Speed(m/s)": 4.1345459327406227, "Average Speed(m/s)": 4.2292147195037098, "Course(deg)": 129.69789869376621, "True Heading(deg)": 51.709091186523438, "Magnetic Heading(deg)": 57.332382202148438, "Heading Accuracy(deg)": 10.0, "Glide Ratio": 24.821016477573007, "Heart Rate (bpm)": 0.0 }, "geometry": { "type": "Point", "coordinates": [ -84.36657, 33.80864 ] } },
{ "type": "Feature", "properties": { "Date(GMT)": "2025-10-03T13:17:37Z", "Date(Local)": "2025-10-03T09:17:37Z", "Time(sec)": 177.51021003723145, "Latitude": 33.80856, "Longitude": -84.36649, "Horizontal Accuracy(m)": 2.032652674765723, "Altitude(m)": 273.82120910938829, "Vertical Accuracy(m)": 3.0, "Distance(m)": 600.40751491890853, "Speed(m/s)": 3.8336739904848489, "Average Speed(m/s)": 4.0995497352899113, "Course(deg)": 142.2079967295617, "True Heading(deg)": 51.709091186523438, "Magnetic Heading(deg)": 57.332382202148438, "Heading Accuracy(deg)": 10.0, "Glide Ratio": 24.143322032948401, "Heart Rate (bpm)": 0.0 }, "geometry": { "type": "Point", "coordinates": [ -84.36649, 33.80856 ] } },
{ "type": "Feature", "properties": { "Date(GMT)": "2025-10-03T13:17:40Z", "Date(Local)": "2025-10-03T09:17:40Z", "Time(sec)": 180.51017701625824, "Latitude": 33.80847, "Longitude": -84.3664, "Horizontal Accuracy(m)": 2.0329480319320696, "Altitude(m)": 274.43912956025451, "Vertical Accuracy(m)": 3.0, "Distance(m)": 613.04546551583417, "Speed(m/s)": 4.0547432730934974, "Average Speed(m/s)": 4.0995497352899113, "Course(deg)": 142.12622523712676, "True Heading(deg)": 51.709091186523438, "Magnetic Heading(deg)": 57.332382202148438, "Heading Accuracy(deg)": 10.0, "Glide Ratio": 19.962953675919213, "Heart Rate (bpm)": 0.0 }, "geometry": { "type": "Point", "coordinates": [ -84.3664, 33.80847 ] } },
{ "type": "Feature", "properties": { "Date(GMT)": "2025-10-03T13:17:43Z", "Date(Local)": "2025-10-03T09:17:43Z", "Time(sec)": 183.51004898548129, "Latitude": 33.80839, "Longitude": -84.36632, "Horizontal Accuracy(m)": 2.0282488249656061, "Altitude(m)": 275.19798396341503, "Vertical Accuracy(m)": 3.0, "Distance(m)": 625.14254594562055, "Speed(m/s)": 3.9801600761342391, "Average Speed(m/s)": 4.0673533428147364, "Course(deg)": 142.78454417650229, "True Heading(deg)": 51.709091186523438, "Magnetic Heading(deg)": 57.332382202148438, "Heading Accuracy(deg)": 10.0, "Glide Ratio": 20.151130851334106, "Heart Rate (bpm)": 0.0 }, "geometry": { "type": "Point", "coordinates": [ -84.36632, 33.80839 ] } },
{ "type": "Feature", "properties": { "Date(GMT)": "2025-10-03T13:17:46Z", "Date(Local)": "2025-10-03T09:17:46Z", "Time(sec)": 186.50997006893161, "Latitude": 33.8083, "Longitude": -84.36624, "Horizontal Accuracy(m)": 2.0242198538534808, "Altitude(m)": 276.06435973383486, "Vertical Accuracy(m)": 3.0, "Distance(m)": 637.58553609689989, "Speed(m/s)": 4.0753723262492336, "Average Speed(m/s)": 4.0673533428147364, "Course(deg)": 141.1758905517988, "True Heading(deg)": 51.709091186523438, "Magnetic Heading(deg)": 57.332382202148438, "Heading Accuracy(deg)": 10.0, "Glide Ratio": 17.103422885921251, "Heart Rate (bpm)": 0.0 }, "geometry": { "type": "Point", "coordinates": [ -84.36624, 33.8083 ] } },
{ "type": "Feature", "properties": { "Date(GMT)": "2025-10-03T13:17:50Z", "Date(Local)": "2025-10-03T09:17:50Z", "Time(sec)": 189.5098249912262, "Latitude": 33.80821, "Longitude": -84.36616, "Horizontal Accuracy(m)": 2.0246794180645411, "Altitude(m)": 275.91393282637, "Vertical Accuracy(m)": 3.0, "Distance(m)": 649.44061462943648, "Speed(m/s)": 3.4853603823859114, "Average Speed(m/s)": 4.1136553061582886, "Course(deg)": 143.24010828665587, "True Heading(deg)": 51.709091186523438, "Magnetic Heading(deg)": 57.332382202148438, "Heading Accuracy(deg)": 10.0, "Glide Ratio": 18.834416061828467, "Heart Rate (bpm)": 0.0 }, "geometry": { "type": "Point", "coordinates": [ -84.36616, 33.80821 ] } },
{ "type": "Feature", "properties": { "Date(GMT)": "2025-10-03T13:18:11Z", "Date(Local)": "2025-10-03T09:18:11Z", "Time(sec)": 210.50465905666351, "Latitude": 33.80815, "Longitude": -84.36608, "Horizontal Accuracy(m)": 2.187667952609428, "Altitude(m)": 275.42425148002803, "Vertical Accuracy(m)": 3.0, "Distance(m)": 659.6858739954497, "Speed(m/s)": 0.22076083479589259, "Average Speed(m/s)": 0.0, "Course(deg)": 107.56839156786066, "True Heading(deg)": 340.19482421875, "Magnetic Heading(deg)": 345.818115234375, "Heading Accuracy(deg)": 10.0, "Glide Ratio": -3.9830579037815181, "Heart Rate (bpm)": 0.0 }, "geometry": { "type": "Point", "coordinates": [ -84.36608, 33.80815 ] } },
{ "type": "Feature", "properties": { "Date(GMT)": "2025-10-03T13:18:19Z", "Date(Local)": "2025-10-03T09:18:19Z", "Time(sec)": 219.50574207305908, "Latitude": 33.80824, "Longitude": -84.36604, "Horizontal Accuracy(m)": 2.1390913921409385, "Altitude(m)": 275.66797092370689, "Vertical Accuracy(m)": 3.0, "Distance(m)": 670.11228105417524, "Speed(m/s)": 3.1460927259974865, "Average Speed(m/s)": 0.68834804526693905, "Course(deg)": 15.189584522549826, "True Heading(deg)": 239.3603515625, "Magnetic Heading(deg)": 244.983642578125, "Heading Accuracy(deg)": 10.0, "Glide Ratio": 142.60439133223699, "Heart Rate (bpm)": 0.0 }, "geometry": { "type": "Point", "coordinates": [ -84.36604, 33.80824 ] } },
{ "type": "Feature", "properties": { "Date(GMT)": "2025-10-03T13:18:21Z", "Date(Local)": "2025-10-03T09:18:21Z", "Time(sec)": 221.50715303421021, "Latitude": 33.80833, "Longitude": -84.36611, "Horizontal Accuracy(m)": 2.145929253442159, "Altitude(m)": 275.32858996558934, "Vertical Accuracy(m)": 3.0, "Distance(m)": 682.71556363316165, "Speed(m/s)": 5.1584358846654936, "Average Speed(m/s)": 0.68834804526693905, "Course(deg)": 328.31845029218209, "True Heading(deg)": 221.02861022949219, "Magnetic Heading(deg)": 226.65190124511719, "Heading Accuracy(deg)": 10.0, "Glide Ratio": 109.51623726684612, "Heart Rate (bpm)": 0.0 }, "geometry": { "type": "Point", "coordinates": [ -84.36611, 33.80833 ] } },
{ "type": "Feature", "properties": { "Date(GMT)": "2025-10-03T13:18:23Z", "Date(Local)": "2025-10-03T09:18:23Z", "Time(sec)": 223.50858199596405, "Latitude": 33.80841, "Longitude": -84.36619, "Horizontal Accuracy(m)": 2.1317011524224485, "Altitude(m)": 274.83607588708401, "Vertical Accuracy(m)": 3.0, "Distance(m)": 694.07599185503966, "Speed(m/s)": 5.4981515282818103, "Average Speed(m/s)": 5.5511374552852839, "Course(deg)": 320.85781997722682, "True Heading(deg)": 228.94754028320312, "Magnetic Heading(deg)": 234.57083129882807, "Heading Accuracy(deg)": 10.0, "Glide Ratio": 259.36877088844142, "Heart Rate (bpm)": 0.0 }, "geometry": { "type": "Point", "coordinates": [ -84.36619, 33.80841 ] } },
{ "type": "Feature", "properties": { "Date(GMT)": "2025-10-03T13:18:25Z", "Date(Local)": "2025-10-03T09:18:25Z", "Time(sec)": 225.51001298427585, "Latitude": 33.8085, "Longitude": -84.36627, "Horizontal Accuracy(m)": 2.1179438149720671, "Altitude(m)": 273.96020651888102, "Vertical Accuracy(m)": 3.0, "Distance(m)": 706.48252370376576, "Speed(m/s)": 6.0180832087223726, "Average Speed(m/s)": 5.9059251450984238, "Course(deg)": 322.39483678516962, "True Heading(deg)": 223.2225341796875, "Magnetic Heading(deg)": 228.8458251953125, "Heading Accuracy(deg)": 10.0, "Glide Ratio": -98.550512736355714, "Heart Rate (bpm)": 0.0 }, "geometry": { "type": "Point", "coordinates": [ -84.36627, 33.8085 ] } },
{ "type": "Feature", "properties": { "Date(GMT)": "2025-10-03T13:18:27Z", "Date(Local)": "2025-10-03T09:18:27Z", "Time(sec)": 227.51154208183289, "Latitude": 33.80859, "Longitude": -84.36636, "Horizontal Accuracy(m)": 2.1130766017380411, "Altitude(m)": 273.22001521382481, "Vertical Accuracy(m)": 3.0, "Distance(m)": 719.16704658993706, "Speed(m/s)": 6.2475690704492441, "Average Speed(m/s)": 6.1926601707544364, "Course(deg)": 321.60809326171875, "True Heading(deg)": 226.50422668457031, "Magnetic Heading(deg)": 232.12751770019531, "Heading Accuracy(deg)": 10.0, "Glide Ratio": -39.724794064695672, "Heart Rate (bpm)": 0.0 }, "geometry": { "type": "Point", "coordinates": [ -84.36636, 33.80859 ] } },
{ "type": "Feature", "properties": { "Date(GMT)": "2025-10-03T13:18:29Z", "Date(Local)": "2025-10-03T09:18:29Z", "Time(sec)": 229.51321804523468, "Latitude": 33.80868, "Longitude": -84.36645, "Horizontal Accuracy(m)": 2.0889539854475867, "Altitude(m)": 272.51962779182941, "Vertical Accuracy(m)": 3.0, "Distance(m)": 732.41744267872195, "Speed(m/s)": 6.5291824077997793, "Average Speed(m/s)": 6.4834454393465677, "Course(deg)": 321.60809326171875, "True Heading(deg)": 224.39356994628903, "Magnetic Heading(deg)": 230.01686096191409, "Heading Accuracy(deg)": 10.0, "Glide Ratio": -29.709256601073825, "Heart Rate (bpm)": 0.0 }, "geometry": { "type": "Point", "coordinates": [ -84.36645, 33.80868 ] } },
{ "type": "Feature", "properties": { "Date(GMT)": "2025-10-03T13:18:31Z", "Date(Local)": "2025-10-03T09:18:31Z", "Time(sec)": 231.50335299968719, "Latitude": 33.80878, "Longitude": -84.36654, "Horizontal Accuracy(m)": 2.0633697032851122, "Altitude(m)": 271.86067408975214, "Vertical Accuracy(m)": 3.0, "Distance(m)": 745.94277137116967, "Speed(m/s)": 6.6768463733311796, "Average Speed(m/s)": 6.6575134946892067, "Course(deg)": 321.78704530486351, "True Heading(deg)": 225.41078186035159, "Magnetic Heading(deg)": 231.03407287597656, "Heading Accuracy(deg)": 10.0, "Glide Ratio": -27.199087023023264, "Heart Rate (bpm)": 0.0 }, "geometry": { "type": "Point", "coordinates": [ -84.36654, 33.80878 ] } },
{ "type": "Feature", "properties": { "Date(GMT)": "2025-10-03T13:18:33Z", "Date(Local)": "2025-10-03T09:18:33Z", "Time(sec)": 233.50338900089264, "Latitude": 33.80888, "Longitude": -84.36662, "Horizontal Accuracy(m)": 2.0410537163860925, "Altitude(m)": 271.7382639516145, "Vertical Accuracy(m)": 3.0, "Distance(m)": 759.64070806644554, "Speed(m/s)": 6.7767940689692105, "Average Speed(m/s)": 6.873573181690583, "Course(deg)": 322.92039707347521, "True Heading(deg)": 222.98780822753903, "Magnetic Heading(deg)": 228.61109924316409, "Heading Accuracy(deg)": 10.0, "Glide Ratio": -25.422846410610159, "Heart Rate (bpm)": 0.0 }, "geometry": { "type": "Point", "coordinates": [ -84.36662, 33.80888 ] } },
{ "type": "Feature", "properties": { "Date(GMT)": "2025-10-03T13:18:35Z", "Date(Local)": "2025-10-03T09:18:35Z", "Time(sec)": 235.50368309020999, "Latitude": 33.80898, "Longitude": -84.36672, "Horizontal Accuracy(m)": 2.0257707591727323, "Altitude(m)": 271.04008109215647, "Vertical Accuracy(m)": 3.0, "Distance(m)": 773.58805256382232, "Speed(m/s)": 6.9608423068444276, "Average Speed(m/s)": 6.6752105429597979, "Course(deg)": 322.65891159996829, "True Heading(deg)": 222.9862365722656, "Magnetic Heading(deg)": 228.60952758789065, "Heading Accuracy(deg)": 10.0, "Glide Ratio": -24.149237121304427, "Heart Rate (bpm)": 0.0 }, "geometry": { "type": "Point", "coordinates": [ -84.36672, 33.80898 ] } },
{ "type": "Feature", "properties": { "Date(GMT)": "2025-10-03T13:18:37Z", "Date(Local)": "2025-10-03T09:18:37Z", "Time(sec)": 237.50338208675385, "Latitude": 33.80908, "Longitude": -84.36682, "Horizontal Accuracy(m)": 2.0158194862544505, "Altitude(m)": 270.2781487647444, "Vertical Accuracy(m)": 3.0, "Distance(m)": 787.79060112558568, "Speed(m/s)": 7.114709643438303, "Average Speed(m/s)": 7.0494465949688836, "Course(deg)": 321.65042114257812, "True Heading(deg)": 225.479736328125, "Magnetic Heading(deg)": 231.10302734375, "Heading Accuracy(deg)": 10.0, "Glide Ratio": -22.225031822513376, "Heart Rate (bpm)": 0.0 }, "geometry": { "type": "Point", "coordinates": [ -84.36682, 33.80908 ] } },
{ "type": "Feature", "properties": { "Date(GMT)": "2025-10-03T13:18:39Z", "Date(Local)": "2025-10-03T09:18:39Z", "Time(sec)": 239.50389897823331, "Latitude": 33.80918, "Longitude": -84.36691, "Horizontal Accuracy(m)": 2.0091844745056218, "Altitude(m)": 269.97203706391161, "Vertical Accuracy(m)": 3.0, "Distance(m)": 802.26528219767226, "Speed(m/s)": 7.2173319907618154, "Average Speed(m/s)": 7.2246733139822688, "Course(deg)": 321.6080322265625, "True Heading(deg)": 221.4842834472656, "Magnetic Heading(deg)": 227.10757446289065, "Heading Accuracy(deg)": 10.0, "Glide Ratio": -21.718051002563602, "Heart Rate (bpm)": 0.0 }, "geometry": { "type": "Point", "coordinates": [ -84.36691, 33.80918 ] } },
{ "type": "Feature", "properties": { "Date(GMT)": "2025-10-03T13:18:41Z", "Date(Local)": "2025-10-03T09:18:41Z", "Time(sec)": 241.50318205356601, "Latitude": 33.80928, "Longitude": -84.36701, "Horizontal Accuracy(m)": 2.0051463312490738, "Altitude(m)": 269.66205589845777, "Vertical Accuracy(m)": 3.0, "Distance(m)": 816.51406215658244, "Speed(m/s)": 7.0626779390951109, "Average Speed(m/s)": 7.2261780561782452, "Course(deg)": 321.6080322265625, "True Heading(deg)": 221.4842834472656, "Magnetic Heading(deg)": 227.10757446289065, "Heading Accuracy(deg)": 10.0, "Glide Ratio": -23.486038438750395, "Heart Rate (bpm)": 0.0 }, "geometry": { "type": "Point", "coordinates": [ -84.36701, 33.80928 ] } },
{ "type": "Feature", "properties": { "Date(GMT)": "2025-10-03T13:18:43Z", "Date(Local)": "2025-10-03T09:18:43Z", "Time(sec)": 243.5078880786896, "Latitude": 33.80938, "Longitude": -84.3671, "Horizontal Accuracy(m)": 2.0029576355814829, "Altitude(m)": 269.44847778603435, "Vertical Accuracy(m)": 3.0, "Distance(m)": 830.30070466181576, "Speed(m/s)": 6.8690240264824789, "Average Speed(m/s)": 6.9406087847601405, "Course(deg)": 321.80203247070312, "True Heading(deg)": 221.4842834472656, "Magnetic Heading(deg)": 227.10757446289065, "Heading Accuracy(deg)": 10.0, "Glide Ratio": -26.676295316230451, "Heart Rate (bpm)": 0.0 }, "geometry": { "type": "Point", "coordinates": [ -84.3671, 33.80938 ] } },
{ "type": "Feature", "properties": { "Date(GMT)": "2025-10-03T13:18:45Z", "Date(Local)": "2025-10-03T09:18:45Z", "Time(sec)": 245.50781798362729, "Latitude": 33.80947, "Longitude": -84.36719, "Horizontal Accuracy(m)": 2.0017619323810627, "Altitude(m)": 269.25996872968972, "Vertical Accuracy(m)": 3.0, "Distance(m)": 843.3277361814246, "Speed(m/s)": 6.5802928276731407, "Average Speed(m/s)": 6.6710701988952925, "Course(deg)": 322.07516479492188, "True Heading(deg)": 221.4842834472656, "Magnetic Heading(deg)": 227.10757446289065, "Heading Accuracy(deg)": 10.0, "Glide Ratio": -30.603582285116381, "Heart Rate (bpm)": 0.0 }, "geometry": { "type": "Point", "coordinates": [ -84.36719, 33.80947 ] } },
{ "type": "Feature", "properties": { "Date(GMT)": "2025-10-03T13:18:47Z", "Date(Local)": "2025-10-03T09:18:47Z", "Time(sec)": 247.50453305244449, "Latitude": 33.80956, "Longitude": -84.36727, "Horizontal Accuracy(m)": 2.0010587681638921, "Altitude(m)": 268.86327461060137, "Vertical Accuracy(m)": 3.0, "Distance(m)": 856.4717235987855, "Speed(m/s)": 6.5347634775995642, "Average Speed(m/s)": 6.5490600507453749, "Course(deg)": 322.75180053710938, "True Heading(deg)": 221.4842834472656, "Magnetic Heading(deg)": 227.10757446289065, "Heading Accuracy(deg)": 10.0, "Glide Ratio": -34.822375552832874, "Heart Rate (bpm)": 0.0 }, "geometry": { "type": "Point", "coordinates": [ -84.36727, 33.80956 ] } },
{ "type": "Feature", "properties": { "Date(GMT)": "2025-10-03T13:18:49Z", "Date(Local)": "2025-10-03T09:18:49Z", "Time(sec)": 249.50746297836304, "Latitude": 33.80966, "Longitude": -84.36736, "Horizontal Accuracy(m)": 2.0006416717594417, "Altitude(m)": 268.77592702303082, "Vertical Accuracy(m)": 3.0, "Distance(m)": 869.42994761259331, "Speed(m/s)": 6.4833145906942873, "Average Speed(m/s)": 6.4825802111574777, "Course(deg)": 322.75180053710938, "True Heading(deg)": 221.4842834472656, "Magnetic Heading(deg)": 227.10757446289065, "Heading Accuracy(deg)": 10.0, "Glide Ratio": -35.602120353178101, "Heart Rate (bpm)": 0.0 }, "geometry": { "type": "Point", "coordinates": [ -84.36736, 33.80966 ] } },
{ "type": "Feature", "properties": { "Date(GMT)": "2025-10-03T13:18:51Z", "Date(Local)": "2025-10-03T09:18:51Z", "Time(sec)": 251.50493407249451, "Latitude": 33.80975, "Longitude": -84.36744, "Horizontal Accuracy(m)": 2.0004396579867243, "Altitude(m)": 268.55167102720588, "Vertical Accuracy(m)": 3.0, "Distance(m)": 882.00473259403316, "Speed(m/s)": 6.3455140590125634, "Average Speed(m/s)": 6.2223107621190179, "Course(deg)": 322.75180053710938, "True Heading(deg)": 221.4842834472656, "Magnetic Heading(deg)": 227.10757446289065, "Heading Accuracy(deg)": 10.0, "Glide Ratio": -38.632584939068643, "Heart Rate (bpm)": 0.0 }, "geometry": { "type": "Point", "coordinates": [ -84.36744, 33.80975 ] } },
{ "type": "Feature", "properties": { "Date(GMT)": "2025-10-03T13:18:53Z", "Date(Local)": "2025-10-03T09:18:53Z", "Time(sec)": 253.50754404067996, "Latitude": 33.80984, "Longitude": -84.36752, "Horizontal Accuracy(m)": 2.0003139894428767, "Altitude(m)": 268.29692086298019, "Vertical Accuracy(m)": 3.0, "Distance(m)": 894.24516557774552, "Speed(m/s)": 6.1159345688665621, "Average Speed(m/s)": 6.2651862770188647, "Course(deg)": 324.7684326171875, "True Heading(deg)": 221.4842834472656, "Magnetic Heading(deg)": 227.10757446289065, "Heading Accuracy(deg)": 10.0, "Glide Ratio": -44.257767691648446, "Heart Rate (bpm)": 0.0 }, "geometry": { "type": "Point", "coordinates": [ -84.36752, 33.80984 ] } },
{ "type": "Feature", "properties": { "Date(GMT)": "2025-10-03T13:18:55Z", "Date(Local)": "2025-10-03T09:18:55Z", "Time(sec)": 255.50745701789856, "Latitude": 33.80994, "Longitude": -84.36759, "Horizontal Accuracy(m)": 2.0002289238871267, "Altitude(m)": 267.90497853700072, "Vertical Accuracy(m)": 3.0, "Distance(m)": 907.21122286814318, "Speed(m/s)": 6.2796380802401526, "Average Speed(m/s)": 6.2883984278544034, "Course(deg)": 327.13446837929393, "True Heading(deg)": 221.4842834472656, "Magnetic Heading(deg)": 227.10757446289065, "Heading Accuracy(deg)": 10.0, "Glide Ratio": -49.693500043067765, "Heart Rate (bpm)": 0.0 }, "geometry": { "type": "Point", "coordinates": [ -84.36759, 33.80994 ] } },
{ "type": "Feature", "properties": { "Date(GMT)": "2025-10-03T13:18:57Z", "Date(Local)": "2025-10-03T09:18:57Z", "Time(sec)": 257.507404088974, "Latitude": 33.81004, "Longitude": -84.36766, "Horizontal Accuracy(m)": 2.0001644441036914, "Altitude(m)": 267.1725179348141, "Vertical Accuracy(m)": 3.0, "Distance(m)": 920.76977483830524, "Speed(m/s)": 6.7695727779466521, "Average Speed(m/s)": 6.524397414097459, "Course(deg)": 329.4592713886741, "True Heading(deg)": 221.4842834472656, "Magnetic Heading(deg)": 227.10757446289065, "Heading Accuracy(deg)": 10.0, "Glide Ratio": -48.850221789091478, "Heart Rate (bpm)": 0.0 }, "geometry": { "type": "Point", "coordinates": [ -84.36766, 33.81004 ] } },
{ "type": "Feature", "properties": { "Date(GMT)": "2025-10-03T13:18:59Z", "Date(Local)": "2025-10-03T09:18:59Z", "Time(sec)": 259.50733602046967, "Latitude": 33.81015, "Longitude": -84.36775, "Horizontal Accuracy(m)": 2.000103563989283, "Altitude(m)": 266.80372628942132, "Vertical Accuracy(m)": 3.0, "Distance(m)": 935.16721693890202, "Speed(m/s)": 7.1352830829666534, "Average Speed(m/s)": 7.0408248706907761, "Course(deg)": 325.51913452148438, "True Heading(deg)": 221.4842834472656, "Magnetic Heading(deg)": 227.10757446289065, "Heading Accuracy(deg)": 10.0, "Glide Ratio": -42.904029745844511, "Heart Rate (bpm)": 0.0 }, "geometry": { "type": "Point", "coordinates": [ -84.36775, 33.81015 ] } },
{ "type": "Feature", "properties": { "Date(GMT)": "2025-10-03T13:19:01Z", "Date(Local)": "2025-10-03T09:19:01Z", "Time(sec)": 261.5072580575943, "Latitude": 33.81027, "Longitude": -84.36786, "Horizontal Accuracy(m)": 2.0000564560466554, "Altitude(m)": 266.30012775212526, "Vertical Accuracy(m)": 3.0, "Distance(m)": 951.76266701876261, "Speed(m/s)": 8.2028102282547355, "Average Speed(m/s)": 7.5737231547371024, "Course(deg)": 319.22869873046875, "True Heading(deg)": 221.4842834472656, "Magnetic Heading(deg)": 227.10757446289065, "Heading Accuracy(deg)": 10.0, "Glide Ratio": -40.182798992314112, "Heart Rate (bpm)": 0.0 }, "geometry": { "type": "Point", "coordinates": [ -84.36786, 33.81027 ] } },
{ "type": "Feature", "properties": { "Date(GMT)": "2025-10-03T13:19:03Z", "Date(Local)": "2025-10-03T09:19:03Z", "Time(sec)": 263.50711905956268, "Latitude": 33.81039, "Longitude": -84.36798, "Horizontal Accuracy(m)": 2.0000240399475531, "Altitude(m)": 266.14163657650352, "Vertical Accuracy(m)": 3.0, "Distance(m)": 969.63915565478362, "Speed(m/s)": 8.8150755764492263, "Average Speed(m/s)": 8.7083899385530579, "Course(deg)": 319.29150390625, "True Heading(deg)": 221.4842834472656, "Magnetic Heading(deg)": 227.10757446289065, "Heading Accuracy(deg)": 10.0, "Glide Ratio": -39.23163597128675, "Heart Rate (bpm)": 0.0 }, "geometry": { "type": "Point", "coordinates": [ -84.36798, 33.81039 ] } },
{ "type": "Feature", "properties": { "Date(GMT)": "2025-10-03T13:19:05Z", "Date(Local)": "2025-10-03T09:19:05Z", "Time(sec)": 265.50709807872772, "Latitude": 33.81051, "Longitude": -84.3681, "Horizontal Accuracy(m)": 2.0000103677732253, "Altitude(m)": 266.39310375228524, "Vertical Accuracy(m)": 3.0, "Distance(m)": 986.38142092722364, "Speed(m/s)": 8.4121341659004685, "Average Speed(m/s)": 8.6336267517688974, "Course(deg)": 319.29150390625, "True Heading(deg)": 221.4842834472656, "Magnetic Heading(deg)": 227.10757446289065, "Heading Accuracy(deg)": 10.0, "Glide Ratio": -42.160339308424334, "Heart Rate (bpm)": 0.0 }, "geometry": { "type": "Point", "coordinates": [ -84.3681, 33.81051 ] } },
{ "type": "Feature", "properties": { "Date(GMT)": "2025-10-03T13:19:07Z", "Date(Local)": "2025-10-03T09:19:07Z", "Time(sec)": 267.50532305240631, "Latitude": 33.81062, "Longitude": -84.3682, "Horizontal Accuracy(m)": 2.0000047656586322, "Altitude(m)": 266.40784982219338, "Vertical Accuracy(m)": 3.0, "Distance(m)": 1002.0701846244746, "Speed(m/s)": 8.0057129959875564, "Average Speed(m/s)": 7.9723693705154997, "Course(deg)": 322.12877479549729, "True Heading(deg)": 221.4842834472656, "Magnetic Heading(deg)": 227.10757446289065, "Heading Accuracy(deg)": 10.0, "Glide Ratio": -51.550785926547228, "Heart Rate (bpm)": 0.0 }, "geometry": { "type": "Point", "coordinates": [ -84.3682, 33.81062 ] } },
{ "type": "Feature", "properties": { "Date(GMT)": "2025-10-03T13:19:09Z", "Date(Local)": "2025-10-03T09:19:09Z", "Time(sec)": 269.50412106513977, "Latitude": 33.81073, "Longitude": -84.36831, "Horizontal Accuracy(m)": 2.000002225390737, "Altitude(m)": 266.45735990535468, "Vertical Accuracy(m)": 3.0, "Distance(m)": 1017.249144353638, "Speed(m/s)": 7.6477643814361, "Average Speed(m/s)": 7.8659849139905047, "Course(deg)": 319.88802845507405, "True Heading(deg)": 221.4842834472656, "Magnetic Heading(deg)": 227.10757446289065, "Heading Accuracy(deg)": 10.0, "Glide Ratio": -58.783278408065904, "Heart Rate (bpm)": 0.0 }, "geometry": { "type": "Point", "coordinates": [ -84.36831, 33.81073 ] } },
{ "type": "Feature", "properties": { "Date(GMT)": "2025-10-03T13:19:11Z", "Date(Local)": "2025-10-03T09:19:11Z", "Time(sec)": 271.5070720911026, "Latitude": 33.81082, "Longitude": -84.36842, "Horizontal Accuracy(m)": 2.0000010773942458, "Altitude(m)": 266.18533721938729, "Vertical Accuracy(m)": 3.0, "Distance(m)": 1031.5074509417311, "Speed(m/s)": 7.070780320888689, "Average Speed(m/s)": 7.5297553526434271, "Course(deg)": 316.20747889991043, "True Heading(deg)": 221.4842834472656, "Magnetic Heading(deg)": 227.10757446289065, "Heading Accuracy(deg)": 10.0, "Glide Ratio": -71.001859303344347, "Heart Rate (bpm)": 0.0 }, "geometry": { "type": "Point", "coordinates": [ -84.36842, 33.81082 ] } },
{ "type": "Feature", "properties": { "Date(GMT)": "2025-10-03T13:19:13Z", "Date(Local)": "2025-10-03T09:19:13Z", "Time(sec)": 273.50300598144531, "Latitude": 33.81088, "Longitude": -84.36853, "Horizontal Accuracy(m)": 2.0000005939010617, "Altitude(m)": 265.63963421899825, "Vertical Accuracy(m)": 3.0, "Distance(m)": 1044.3148317961336, "Speed(m/s)": 6.41570883230583, "Average Speed(m/s)": 6.7627201850840342, "Course(deg)": 309.50836181640625, "True Heading(deg)": 221.4842834472656, "Magnetic Heading(deg)": 227.10757446289065, "Heading Accuracy(deg)": 10.0, "Glide Ratio": -81.52465900780237, "Heart Rate (bpm)": 0.0 }, "geometry": { "type": "Point", "coordinates": [ -84.36853, 33.81088 ] } },
{ "type": "Feature", "properties": { "Date(GMT)": "2025-10-03T13:19:16Z", "Date(Local)": "2025-10-03T09:19:16Z", "Time(sec)": 276.50675809383392, "Latitude": 33.81093, "Longitude": -84.36866, "Horizontal Accuracy(m)": 2.0000003657215171, "Altitude(m)": 265.12719461321831, "Vertical Accuracy(m)": 3.0, "Distance(m)": 1057.4346943873595, "Speed(m/s)": 3.9963597149575478, "Average Speed(m/s)": 5.7569919449588616, "Course(deg)": 291.01252067854722, "True Heading(deg)": 221.4842834472656, "Magnetic Heading(deg)": 227.10757446289065, "Heading Accuracy(deg)": 10.0, "Glide Ratio": -76.886691366158558, "Heart Rate (bpm)": 0.0 }, "geometry": { "type": "Point", "coordinates": [ -84.36866, 33.81093 ] } },
{ "type": "Feature", "properties": { "Date(GMT)": "2025-10-03T13:20:09Z", "Date(Local)": "2025-10-03T09:20:09Z", "Time(sec)": 328.50515699386602, "Latitude": 33.81097, "Longitude": -84.36878, "Horizontal Accuracy(m)": 2.0256052231868749, "Altitude(m)": 264.00302266329527, "Vertical Accuracy(m)": 3.0, "Distance(m)": 1069.0135878484573, "Speed(m/s)": 3.9901541966002014, "Average Speed(m/s)": 0.79247141566318546, "Course(deg)": 281.84271240234369, "True Heading(deg)": 221.4842834472656, "Magnetic Heading(deg)": 227.10757446289065, "Heading Accuracy(deg)": 10.0, "Glide Ratio": 19.685827161997945, "Heart Rate (bpm)": 0.0 }, "geometry": { "type": "Point", "coordinates": [ -84.36878, 33.81097 ] } },
{ "type": "Feature", "properties": { "Date(GMT)": "2025-10-03T13:20:11Z", "Date(Local)": "2025-10-03T09:20:11Z", "Time(sec)": 330.50495100021362, "Latitude": 33.81098, "Longitude": -84.36889, "Horizontal Accuracy(m)": 2.0231086934251623, "Altitude(m)": 263.72077140770853, "Vertical Accuracy(m)": 3.0, "Distance(m)": 1079.6546851151863, "Speed(m/s)": 5.2453716823140981, "Average Speed(m/s)": 0.79247141566318546, "Course(deg)": 279.31204223632812, "True Heading(deg)": 221.4842834472656, "Magnetic Heading(deg)": 227.10757446289065, "Heading Accuracy(deg)": 10.0, "Glide Ratio": 129.40574677393954, "Heart Rate (bpm)": 0.0 }, "geometry": { "type": "Point", "coordinates": [ -84.36889, 33.81098 ] } },
{ "type": "Feature", "properties": { "Date(GMT)": "2025-10-03T13:20:13Z", "Date(Local)": "2025-10-03T09:20:13Z", "Time(sec)": 332.50439202785492, "Latitude": 33.81098, "Longitude": -84.369, "Horizontal Accuracy(m)": 2.0208555920258604, "Altitude(m)": 262.87751196231693, "Vertical Accuracy(m)": 3.0, "Distance(m)": 1089.9793681820445, "Speed(m/s)": 4.9456396643199785, "Average Speed(m/s)": 5.2758460984439575, "Course(deg)": 277.181640625, "True Heading(deg)": 221.4842834472656, "Magnetic Heading(deg)": 227.10757446289065, "Heading Accuracy(deg)": 10.0, "Glide Ratio": -76.11016582681772, "Heart Rate (bpm)": 0.0 }, "geometry": { "type": "Point", "coordinates": [ -84.369, 33.81098 ] } },
{ "type": "Feature", "properties": { "Date(GMT)": "2025-10-03T13:20:15Z", "Date(Local)": "2025-10-03T09:20:15Z", "Time(sec)": 334.50481700897217, "Latitude": 33.811, "Longitude": -84.36915, "Horizontal Accuracy(m)": 2.0181605580635642, "Altitude(m)": 261.94448190368712, "Vertical Accuracy(m)": 3.0, "Distance(m)": 1103.5516226876312, "Speed(m/s)": 6.5720039110727262, "Average Speed(m/s)": 4.9054366831782312, "Course(deg)": 269.09793090820312, "True Heading(deg)": 221.4842834472656, "Magnetic Heading(deg)": 227.10757446289065, "Heading Accuracy(deg)": 10.0, "Glide Ratio": -30.135896022539303, "Heart Rate (bpm)": 0.0 }, "geometry": { "type": "Point", "coordinates": [ -84.36915, 33.811 ] } },
{ "type": "Feature", "properties": { "Date(GMT)": "2025-10-03T13:20:17Z", "Date(Local)": "2025-10-03T09:20:17Z", "Time(sec)": 336.50474202632904, "Latitude": 33.81099, "Longitude": -84.3693, "Horizontal Accuracy(m)": 2.0133724862853914, "Altitude(m)": 261.42709601391107, "Vertical Accuracy(m)": 3.0, "Distance(m)": 1117.4847639098557, "Speed(m/s)": 6.8807804161121009, "Average Speed(m/s)": 6.797173462023256, "Course(deg)": 265.02294921875, "True Heading(deg)": 221.4842834472656, "Magnetic Heading(deg)": 227.10757446289065, "Heading Accuracy(deg)": 10.0, "Glide Ratio": -25.129022339328863, "Heart Rate (bpm)": 0.0 }, "geometry": { "type": "Point", "coordinates": [ -84.3693, 33.81099 ] } },
{ "type": "Feature", "properties": { "Date(GMT)": "2025-10-03T13:20:19Z", "Date(Local)": "2025-10-03T09:20:19Z", "Time(sec)": 338.50486099720001, "Latitude": 33.81098, "Longitude": -84.36945, "Horizontal Accuracy(m)": 2.0083270271298272, "Altitude(m)": 260.93253405485302, "Vertical Accuracy(m)": 3.0, "Distance(m)": 1132.2891375512074, "Speed(m/s)": 7.378264064941078, "Average Speed(m/s)": 6.9761089045033886, "Course(deg)": 260.7822265625, "True Heading(deg)": 221.4842834472656, "Magnetic Heading(deg)": 227.10757446289065, "Heading Accuracy(deg)": 10.0, "Glide Ratio": -24.331341874930061, "Heart Rate (bpm)": 0.0 }, "geometry": { "type": "Point", "coordinates": [ -84.36945, 33.81098 ] } },
{ "type": "Feature", "properties": { "Date(GMT)": "2025-10-03T13:20:21Z", "Date(Local)": "2025-10-03T09:20:21Z", "Time(sec)": 340.50468504428864, "Latitude": 33.81094, "Longitude": -84.36962, "Horizontal Accuracy(m)": 2.0044323555315509, "Altitude(m)": 260.24705110583454, "Vertical Accuracy(m)": 3.0, "Distance(m)": 1147.7916298712889, "Speed(m/s)": 7.6621784063299438, "Average Speed(m/s)": 7.5026215117086927, "Course(deg)": 257.13079833984369, "True Heading(deg)": 221.4842834472656, "Magnetic Heading(deg)": 227.10757446289065, "Heading Accuracy(deg)": 10.0, "Glide Ratio": -25.632319032177108, "Heart Rate (bpm)": 0.0 }, "geometry": { "type": "Point", "coordinates": [ -84.36962, 33.81094 ] } },
{ "type": "Feature", "properties": { "Date(GMT)": "2025-10-03T13:20:23Z", "Date(Local)": "2025-10-03T09:20:23Z", "Time(sec)": 342.50454008579254, "Latitude": 33.8109, "Longitude": -84.36978, "Horizontal Accuracy(m)": 2.0023023662735131, "Altitude(m)": 259.39644217304885, "Vertical Accuracy(m)": 3.0, "Distance(m)": 1163.530239931476, "Speed(m/s)": 7.7063291063637553, "Average Speed(m/s)": 7.7022533625316782, "Course(deg)": 251.84033203125, "True Heading(deg)": 221.4842834472656, "Magnetic Heading(deg)": 227.10757446289065, "Heading Accuracy(deg)": 10.0, "Glide Ratio": -23.899372061026892, "Heart Rate (bpm)": 0.0 }, "geometry": { "type": "Point", "coordinates": [ -84.36978, 33.8109 ] } },
{ "type": "Feature", "properties": { "Date(GMT)": "2025-10-03T13:20:24Z", "Date(Local)": "2025-10-03T09:20:24Z", "Time(sec)": 344.50447607040405, "Latitude": 33.81086, "Longitude": -84.36994, "Horizontal Accuracy(m)": 2.001220157110696, "Altitude(m)": 258.06473403703421, "Vertical Accuracy(m)": 3.0, "Distance(m)": 1178.9105718447131, "Speed(m/s)": 7.7088371849197763, "Average Speed(m/s)": 7.7332486175469386, "Course(deg)": 250.91954040527344, "True Heading(deg)": 221.4842834472656, "Magnetic Heading(deg)": 227.10757446289065, "Heading Accuracy(deg)": 10.0, "Glide Ratio": -20.590283201748463, "Heart Rate (bpm)": 0.0 }, "geometry": { "type": "Point", "coordinates": [ -84.36994, 33.81086 ] } },
{ "type": "Feature", "properties": { "Date(GMT)": "2025-10-03T13:20:26Z", "Date(Local)": "2025-10-03T09:20:26Z", "Time(sec)": 346.50441205501562, "Latitude": 33.8108, "Longitude": -84.37008, "Horizontal Accuracy(m)": 2.0006542497825568, "Altitude(m)": 256.86602669674903, "Vertical Accuracy(m)": 3.0, "Distance(m)": 1193.7647325986557, "Speed(m/s)": 7.4930310799283166, "Average Speed(m/s)": 7.6571917887034369, "Course(deg)": 250.91954040527344, "True Heading(deg)": 221.4842834472656, "Magnetic Heading(deg)": 227.10757446289065, "Heading Accuracy(deg)": 10.0, "Glide Ratio": -18.26231549547359, "Heart Rate (bpm)": 0.0 }, "geometry": { "type": "Point", "coordinates": [ -84.37008, 33.8108 ] } },
{ "type": "Feature", "properties": { "Date(GMT)": "2025-10-03T13:20:28Z", "Date(Local)": "2025-10-03T09:20:28Z", "Time(sec)": 348.49985706806183, "Latitude": 33.81075, "Longitude": -84.37023, "Horizontal Accuracy(m)": 2.0003543246183142, "Altitude(m)": 256.14872117619962, "Vertical Accuracy(m)": 3.0, "Distance(m)": 1208.8788844150124, "Speed(m/s)": 7.507756717942196, "Average Speed(m/s)": 7.5033877135197766, "Course(deg)": 252.09429931640625, "True Heading(deg)": 221.4842834472656, "Magnetic Heading(deg)": 227.10757446289065, "Heading Accuracy(deg)": 10.0, "Glide Ratio": -17.921719928865222, "Heart Rate (bpm)": 0.0 }, "geometry": { "type": "Point", "coordinates": [ -84.37023, 33.81075 ] } },
{ "type": "Feature", "properties": { "Date(GMT)": "2025-10-03T13:20:30Z", "Date(Local)": "2025-10-03T09:20:30Z", "Time(sec)": 350.50432097911835, "Latitude": 33.81071, "Longitude": -84.3704, "Horizontal Accuracy(m)": 2.0001850586131198, "Altitude(m)": 255.1462911423296, "Vertical Accuracy(m)": 3.0, "Distance(m)": 1224.9350048698741, "Speed(m/s)": 7.9201057669652242, "Average Speed(m/s)": 7.5303987761295623, "Course(deg)": 257.34030151367188, "True Heading(deg)": 221.4842834472656, "Magnetic Heading(deg)": 227.10757446289065, "Heading Accuracy(deg)": 10.0, "Glide Ratio": -18.338376959874939, "Heart Rate (bpm)": 0.0 }, "geometry": { "type": "Point", "coordinates": [ -84.3704, 33.81071 ] } },
{ "type": "Feature", "properties": { "Date(GMT)": "2025-10-03T13:20:32Z", "Date(Local)": "2025-10-03T09:20:32Z", "Time(sec)": 352.50429904460907, "Latitude": 33.8107, "Longitude": -84.37058, "Horizontal Accuracy(m)": 2.0000884284380001, "Altitude(m)": 254.64751248806715, "Vertical Accuracy(m)": 3.0, "Distance(m)": 1241.1841363369858, "Speed(m/s)": 8.0043244506060613, "Average Speed(m/s)": 8.0002516054399901, "Course(deg)": 266.16400146484369, "True Heading(deg)": 221.4842834472656, "Magnetic Heading(deg)": 227.10757446289065, "Heading Accuracy(deg)": 10.0, "Glide Ratio": -17.995622880617727, "Heart Rate (bpm)": 0.0 }, "geometry": { "type": "Point", "coordinates": [ -84.37058, 33.8107 ] } },
{ "type": "Feature", "properties": { "Date(GMT)": "2025-10-03T13:20:34Z", "Date(Local)": "2025-10-03T09:20:34Z", "Time(sec)": 354.50428104400635, "Latitude": 33.8107, "Longitude": -84.37074, "Horizontal Accuracy(m)": 2.0000417899776148, "Altitude(m)": 254.20488144084811, "Vertical Accuracy(m)": 3.0, "Distance(m)": 1256.6417058482521, "Speed(m/s)": 7.8317025858859077, "Average Speed(m/s)": 8.0480977265255014, "Course(deg)": 269.580078125, "True Heading(deg)": 221.4842834472656, "Magnetic Heading(deg)": 227.10757446289065, "Heading Accuracy(deg)": 10.0, "Glide Ratio": -17.926714138894752, "Heart Rate (bpm)": 0.0 }, "geometry": { "type": "Point", "coordinates": [ -84.37074, 33.8107 ] } },
{ "type": "Feature", "properties": { "Date(GMT)": "2025-10-03T13:20:36Z", "Date(Local)": "2025-10-03T09:20:36Z", "Time(sec)": 356.50406908988953, "Latitude": 33.8107, "Longitude": -84.37091, "Horizontal Accuracy(m)": 2.0000198576097161, "Altitude(m)": 253.86259660031649, "Vertical Accuracy(m)": 3.0, "Distance(m)": 1271.7969334703889, "Speed(m/s)": 7.6266864035482156, "Average Speed(m/s)": 7.7868133696502753, "Course(deg)": 271.0831298828125, "True Heading(deg)": 221.4842834472656, "Magnetic Heading(deg)": 227.10757446289065, "Heading Accuracy(deg)": 10.0, "Glide Ratio": -17.743334702684173, "Heart Rate (bpm)": 0.0 }, "geometry": { "type": "Point", "coordinates": [ -84.37091, 33.8107 ] } },
{ "type": "Feature", "properties": { "Date(GMT)": "2025-10-03T13:20:38Z", "Date(Local)": "2025-10-03T09:20:38Z", "Time(sec)": 358.50413501262665, "Latitude": 33.81068, "Longitude": -84.37107, "Horizontal Accuracy(m)": 2.0000096490565751, "Altitude(m)": 253.88676800578835, "Vertical Accuracy(m)": 3.0, "Distance(m)": 1286.7051641537262, "Speed(m/s)": 7.2611492803993789, "Average Speed(m/s)": 7.6390257101472496, "Course(deg)": 277.1043701171875, "True Heading(deg)": 221.4842834472656, "Magnetic Heading(deg)": 227.10757446289065, "Heading Accuracy(deg)": 10.0, "Glide Ratio": -19.775178419404519, "Heart Rate (bpm)": 0.0 }, "geometry": { "type": "Point", "coordinates": [ -84.37107, 33.81068 ] } },
{ "type": "Feature", "properties": { "Date(GMT)": "2025-10-03T13:20:40Z", "Date(Local)": "2025-10-03T09:20:40Z", "Time(sec)": 360.50022101402283, "Latitude": 33.8107, "Longitude": -84.37121, "Horizontal Accuracy(m)": 3.285337194417151, "Altitude(m)": 253.89101636130363, "Vertical Accuracy(m)": 3.0, "Distance(m)": 1300.1599374653144, "Speed(m/s)": 6.6078999603280559, "Average Speed(m/s)": 7.3848745268405338, "Course(deg)": 284.47369384765625, "True Heading(deg)": 221.4842834472656, "Magnetic Heading(deg)": 227.10757446289065, "Heading Accuracy(deg)": 10.0, "Glide Ratio": -24.216337817293866, "Heart Rate (bpm)": 0.0 }, "geometry": { "type": "Point", "coordinates": [ -84.37121, 33.8107 ] } },
{ "type": "Feature", "properties": { "Date(GMT)": "2025-10-03T13:20:42Z", "Date(Local)": "2025-10-03T09:20:42Z", "Time(sec)": 362.50385999679565, "Latitude": 33.81078, "Longitude": -84.37132, "Horizontal Accuracy(m)": 2.0000032776009489, "Altitude(m)": 254.04298279155049, "Vertical Accuracy(m)": 3.0, "Distance(m)": 1312.9150164886776, "Speed(m/s)": 5.9789329387797991, "Average Speed(m/s)": 6.6524585462300809, "Course(deg)": 292.80996704101562, "True Heading(deg)": 221.4842834472656, "Magnetic Heading(deg)": 227.10757446289065, "Heading Accuracy(deg)": 10.0, "Glide Ratio": -32.261782416832951, "Heart Rate (bpm)": 0.0 }, "geometry": { "type": "Point", "coordinates": [ -84.37132, 33.81078 ] } },
{ "type": "Feature", "properties": { "Date(GMT)": "2025-10-03T13:20:44Z", "Date(Local)": "2025-10-03T09:20:44Z", "Time(sec)": 364.50380098819733, "Latitude": 33.81077, "Longitude": -84.37144, "Horizontal Accuracy(m)": 2.0000024659218401, "Altitude(m)": 254.26041937805712, "Vertical Accuracy(m)": 3.0, "Distance(m)": 1324.4981484474879, "Speed(m/s)": 5.736310588728081, "Average Speed(m/s)": 6.4239325098925324, "Course(deg)": 266.47628784179688, "True Heading(deg)": 221.4842834472656, "Magnetic Heading(deg)": 227.10757446289065, "Heading Accuracy(deg)": 10.0, "Glide Ratio": -44.624886240089921, "Heart Rate (bpm)": 0.0 }, "geometry": { "type": "Point", "coordinates": [ -84.37144, 33.81077 ] } },
{ "type": "Feature", "properties": { "Date(GMT)": "2025-10-03T13:20:46Z", "Date(Local)": "2025-10-03T09:20:46Z", "Time(sec)": 366.50372099876398, "Latitude": 33.81071, "Longitude": -84.37154, "Horizontal Accuracy(m)": 2.0000019884562148, "Altitude(m)": 254.44873208645731, "Vertical Accuracy(m)": 3.0, "Distance(m)": 1336.4803680491518, "Speed(m/s)": 5.4972231626855219, "Average Speed(m/s)": 5.8228744837216846, "Course(deg)": 230.19302368164065, "True Heading(deg)": 221.4842834472656, "Magnetic Heading(deg)": 227.10757446289065, "Heading Accuracy(deg)": 10.0, "Glide Ratio": -77.998969221914322, "Heart Rate (bpm)": 0.0 }, "geometry": { "type": "Point", "coordinates": [ -84.37154, 33.81071 ] } },
{ "type": "Feature", "properties": { "Date(GMT)": "2025-10-03T13:20:48Z", "Date(Local)": "2025-10-03T09:20:48Z", "Time(sec)": 368.50366604328161, "Latitude": 33.81063, "Longitude": -84.37162, "Horizontal Accuracy(m)": 2.000001656516889, "Altitude(m)": 254.63730066735295, "Vertical Accuracy(m)": 3.0, "Distance(m)": 1347.0861462294502, "Speed(m/s)": 4.5431264936604956, "Average Speed(m/s)": 5.685629083429836, "Course(deg)": 241.65484619140625, "True Heading(deg)": 221.4842834472656, "Magnetic Heading(deg)": 227.10757446289065, "Heading Accuracy(deg)": 10.0, "Glide Ratio": -232.72230048991301, "Heart Rate (bpm)": 0.0 }, "geometry": { "type": "Point", "coordinates": [ -84.37162, 33.81063 ] } },
{ "type": "Feature", "properties": { "Date(GMT)": "2025-10-03T13:21:05Z", "Date(Local)": "2025-10-03T09:21:05Z", "Time(sec)": 386.50242209434509, "Latitude": 33.81062, "Longitude": -84.37166, "Horizontal Accuracy(m)": 5.1662341807818208, "Altitude(m)": 253.54925121553239, "Vertical Accuracy(m)": 3.0, "Distance(m)": 1347.0861462294502, "Speed(m/s)": 0.1411390179238175, "Average Speed(m/s)": 0.0, "Course(deg)": 247.37911987304688, "True Heading(deg)": 221.4842834472656, "Magnetic Heading(deg)": 227.10757446289065, "Heading Accuracy(deg)": 10.0, "Glide Ratio": -3.5483345422547723, "Heart Rate (bpm)": 0.0 }, "geometry": { "type": "Point", "coordinates": [ -84.37166, 33.81062 ] } }
]
}
