<?xml version="1.0" encoding="UTF-8"?>
<gpx version="1.1" creator="studio-kura GPX Binder" xmlns:xsi="http://www.w3.org/2001/XMLSchema-instance" xmlns="http://www.topografix.com/GPX/1/1" xsi:schemaLocation="http://www.topografix.com/GPX/1/1 http://www.topografix.com/GPX/1/1/gpx.xsd">
	<trk>
		<name><![CDATA[October 21, 2025 at 1:56 PM]]></name>
		<trkseg>
			<trkpt lat="33.77127883294903" lon="-84.3959875865016">
				<ele>298</ele>
				<time>2025-10-21T17:56:56.001Z</time>
			</trkpt>
			<trkpt lat="33.77076983808674" lon="-84.39599131750103">
				<ele>300</ele>
				<time>2025-10-21T17:58:23.002Z</time>
			</trkpt>
			<trkpt lat="33.770317989773375" lon="-84.39597845723843">
				<ele>300</ele>
				<time>2025-10-21T17:58:55.002Z</time>
			</trkpt>
			<trkpt lat="33.769867165111044" lon="-84.3959900166137">
				<ele>299</ele>
				<time>2025-10-21T17:59:29.003Z</time>
			</trkpt>
			<trkpt lat="33.76939853421403" lon="-84.39602327067992">
				<ele>299</ele>
				<time>2025-10-21T18:00:07.002Z</time>
			</trkpt>
			<trkpt lat="33.768943712753675" lon="-84.39599940449986">
				<ele>297</ele>
				<time>2025-10-21T18:00:37.002Z</time>
			</trkpt>
			<trkpt lat="33.7684900900172" lon="-84.39599009062886">
				<ele>296</ele>
				<time>2025-10-21T18:01:12.003Z</time>
			</trkpt>
			<trkpt lat="33.76802854120722" lon="-84.39597046150764">
				<ele>297</ele>
				<time>2025-10-21T18:01:47.002Z</time>
			</trkpt>
			<trkpt lat="33.767574507163" lon="-84.39601254100036">
				<ele>299</ele>
				<time>2025-10-21T18:02:27.002Z</time>
			</trkpt>
			<trkpt lat="33.76711269824003" lon="-84.39599694041456">
				<ele>300</ele>
				<time>2025-10-21T18:03:00.002Z</time>
			</trkpt>
			<trkpt lat="33.76665527216819" lon="-84.39602954487675">
				<ele>303</ele>
				<time>2025-10-21T18:03:37.003Z</time>
			</trkpt>
			<trkpt lat="33.766196484938355" lon="-84.39602558542902">
				<ele>304</ele>
				<time>2025-10-21T18:04:10.002Z</time>
			</trkpt>
			<trkpt lat="33.76574085040183" lon="-84.39604702651398">
				<ele>308</ele>
				<time>2025-10-21T18:04:43.002Z</time>
			</trkpt>
			<trkpt lat="33.76527692212099" lon="-84.39603280578883">
				<ele>308</ele>
				<time>2025-10-21T18:05:16.002Z</time>
			</trkpt>
			<trkpt lat="33.76481553989539" lon="-84.39603874958053">
				<ele>310</ele>
				<time>2025-10-21T18:05:51.003Z</time>
			</trkpt>
			<trkpt lat="33.76435469885514" lon="-84.39600822096091">
				<ele>312</ele>
				<time>2025-10-21T18:06:23.002Z</time>
			</trkpt>
			<trkpt lat="33.76389412724081" lon="-84.39598577111113">
				<ele>310</ele>
				<time>2025-10-21T18:06:57.002Z</time>
			</trkpt>
			<trkpt lat="33.762081095099774" lon="-84.39523662777216">
				<ele>308</ele>
				<time>2025-10-21T18:09:34.001Z</time>
			</trkpt>
			<trkpt lat="33.76234626472247" lon="-84.39568654196893">
				<ele>309</ele>
				<time>2025-10-21T18:10:13.001Z</time>
			</trkpt>
			<trkpt lat="33.76308946669109" lon="-84.39622870511454">
				<ele>313</ele>
				<time>2025-10-21T18:11:13.000Z</time>
			</trkpt>
			<trkpt lat="33.76355172104144" lon="-84.39627079953254">
				<ele>311</ele>
				<time>2025-10-21T18:11:44.000Z</time>
			</trkpt>
			<trkpt lat="33.76400260375231" lon="-84.39625708248356">
				<ele>311</ele>
				<time>2025-10-21T18:12:16.001Z</time>
			</trkpt>
			<trkpt lat="33.764458747386335" lon="-84.39628728860663">
				<ele>312</ele>
				<time>2025-10-21T18:12:52.000Z</time>
			</trkpt>
			<trkpt lat="33.76492270815254" lon="-84.3962671497787">
				<ele>313</ele>
				<time>2025-10-21T18:14:51.000Z</time>
			</trkpt>
			<trkpt lat="33.7653719336695" lon="-84.3962173081873">
				<ele>311</ele>
				<time>2025-10-21T18:15:24.000Z</time>
			</trkpt>
			<trkpt lat="33.765838279501295" lon="-84.39620825254454">
				<ele>307</ele>
				<time>2025-10-21T18:15:56.000Z</time>
			</trkpt>
			<trkpt lat="33.76629782289789" lon="-84.39623348998003">
				<ele>305</ele>
				<time>2025-10-21T18:16:28.000Z</time>
			</trkpt>
			<trkpt lat="33.766747061084196" lon="-84.39618196150965">
				<ele>306</ele>
				<time>2025-10-21T18:17:03.000Z</time>
			</trkpt>
			<trkpt lat="33.76719982412175" lon="-84.396215248932">
				<ele>301</ele>
				<time>2025-10-21T18:17:33.000Z</time>
			</trkpt>
			<trkpt lat="33.76765710456908" lon="-84.39621106538183">
				<ele>298</ele>
				<time>2025-10-21T18:18:07.000Z</time>
			</trkpt>
			<trkpt lat="33.76811933336668" lon="-84.39624436356813">
				<ele>298</ele>
				<time>2025-10-21T18:18:39.000Z</time>
			</trkpt>
			<trkpt lat="33.76858098504175" lon="-84.39620844575296">
				<ele>296</ele>
				<time>2025-10-21T18:19:11.000Z</time>
			</trkpt>
			<trkpt lat="33.76904005217954" lon="-84.39623978077242">
				<ele>299</ele>
				<time>2025-10-21T18:19:45.000Z</time>
			</trkpt>
			<trkpt lat="33.76950023277887" lon="-84.39622602716037">
				<ele>300</ele>
				<time>2025-10-21T18:20:20.000Z</time>
			</trkpt>
			<trkpt lat="33.76996480171825" lon="-84.3962272205101">
				<ele>301</ele>
				<time>2025-10-21T18:20:55.000Z</time>
			</trkpt>
			<trkpt lat="33.77124336359847" lon="-84.39625059759177">
				<ele>298</ele>
				<time>2025-10-21T18:22:28.999Z</time>
			</trkpt>
			<trkpt lat="33.77124999744785" lon="-84.39625871675938">
				<ele>299</ele>
				<time>2025-10-21T18:22:31.413Z</time>
			</trkpt>
		</trkseg>
	</trk>
</gpx>